Event 14237780 Southeastern Siberia
   Date       Time        Err   RMS Latitude Longitude  Smaj  Smin  Az Depth   Err Ndef Nsta Gap  mdist  Mdist Qual   Author      OrigID
2010/01/01 03:56:43.41   2.61 1.170  57.2458  121.3462  56.7  22.6 153   0.0f        10      173  13.07  50.58     uk IDC       16654447
2010/01/01 03:56:45.40   0.17        57.4600  120.8600                  10.0f                                         YARS      00300575
2010/01/01 03:56:45.70   0.50        57.4600  120.8400                               49            0.71  12.98     se BYKL      15183370
2010/01/01 03:56:46.30   1.35        57.4620  120.7830  17.0  15.3  65  13.0         14                               MOS       14580938
2010/01/01 03:56:46.55   1.24 1.965  57.3688  120.7955 4.581 2.789  13   0.8  9.69   97   73  73   0.63  50.27 m i se ISC       00011581
 (#PRIME)

Magnitude  Err Nsta Author      OrigID
mb     3.6 0.2    7 IDC       16654447
mb1    3.7 0.2    9 IDC       16654447
mb1mx  3.5 0.1   31 IDC       16654447
mbtmp  3.6 0.2    9 IDC       16654447
ML     3.3 0.3    2 IDC       16654447
MSV    3.5          YARS      00300575
mb     4.3        3 MOS       14580938
mb     3.7 0.3    6 ISC       00011581

Sta     Dist  EvAz Phase        Time      TRes  Azim AzRes   Slow   SRes Def   SNR       Amp   Per Qual Magnitude    ArrID
KHNR    0.63 225.1 Pg       03:56:58.7     0.1                           T__                        _i            25416303
KHNR    0.63 225.1 Pb       03:57:00.2    -0.2                           T__                        _e            25416304
KHNR    0.63 225.1 Sg       03:57:07.1     0.3                           T__                        _e            25416305
KHN     0.71 231.1 Pg       03:56:58.7    -1.4                           T__                        _i            05825213
KHN     0.71 231.1 Pm       03:56:58.7                                   ___           205.0  0.20  __            05825214
KHN     0.71 231.1 Sg       03:57:07.1    -2.2                           T__                        _i            05825215
KHN     0.71 231.1 Sm       03:57:07.1                                   ___          1850.0  0.20  __            05825216
YKLR    0.91 148.5 Pg       03:57:04.3     0.3                           T__                        _i            25416376
YKLR    0.91 148.5 Sb       03:57:17.4    -0.3                           T__                        _e            25416377
YKLR    0.91 148.5 Sn       03:57:20.6     0.3                           T__                        _e            25416378
YKLR    0.91 148.5 Pg       03:57:04.4     0.4                           T__                        _i            05825217
YKLR    0.91 148.5 Pm       03:57:04.4                                   ___           245.0  0.30  __            05825218
YKLR    0.91 148.5 Sg       03:57:15.7    -0.0                           T__                        _e            05825219
YKLR    0.91 148.5 Sm       03:57:15.7                                   ___          3788.0  0.30  __            05825220
CRS     1.46 252.2 Pn       03:57:13.5    -0.5                           T__                        _e            18250517
CRS     1.46 252.2          03:57:31.9                                   ___                        _e            18250519
CRS     1.46 252.2 smax                                                  ___           324.0  0.50  __            18250520
CRS     1.46 252.2 pmax                                                  ___           237.0  0.50  __            18250518
CRS     1.46 252.2 Pn       03:57:13.2    -0.8                           T__                        _i            25416288
CRS     1.46 252.2          03:57:15.0                                   ___                        _e            25416289
CRS     1.46 252.2 Sn       03:57:31.9    -1.9                           T__                        _e            25416290
CRS     1.46 252.2 Smax                                                  ___           373.0  0.50  __            25416292
CRS     1.46 252.2 max                                                   ___            46.0  0.30  __            25416291
CRS     1.46 252.2 Pn       03:57:13.2    -0.8                           T__                        _e            05825221
CRS     1.46 252.2 Pm       03:57:13.2                                   ___            46.0  0.30  __            05825222
CRS     1.46 252.2 Sn       03:57:31.9    -1.9                           T__                        _e            05825223
CRS     1.46 252.2 Sm       03:57:31.9                                   ___           373.0  0.50  __            05825224
CLNS    2.30 101.7 Pn       03:57:26.5     0.9                           T__                        _e            18250521
CLNS    2.30 101.7 Sb       03:57:56.6    -1.1                           T__                        _e            18250522
CLNS    2.30 101.7 Pn       03:57:26.6     0.9                           T__                        _i            25416285
CLNS    2.30 101.7          03:57:34.8                                   ___                        _e            25416286
CLNS    2.30 101.7 Sb       03:57:57.0    -0.7                           T__                        _e            25416287
CLNS    2.30 101.7 Pn       03:57:26.6     0.9                           T__                        _i            05825225
CLNS    2.30 101.7 Pm       03:57:26.6                                   ___            43.0  0.30  __            05825226
CLNS    2.30 101.7 Sb       03:57:55.9    -1.8                           T__                        _e            05825227
CLNS    2.30 101.7 Sm       03:57:55.9                                   ___           683.0  0.40  __            05825228
IENR    2.51 115.5 Pn       03:57:28.8     0.2                           T__                        _i            25416296
IENR    2.51 115.5 Pb       03:57:31.4    -1.1                           T__                        _i            25416297
IENR    2.51 115.5 Sb       03:58:04.6     0.7                           T__                        _e            25416298
IENR    2.51 115.5          03:58:14.4                                   ___                        _e            25416299
IENR    2.51 115.5 P        03:57:28.9                                   ___                        _e            05825229
IENR    2.51 115.5 Pb       03:57:31.3    -1.2                           T__                        _e            05825230
IENR    2.51 115.5 Pm       03:57:31.3                                   ___           122.0  0.30  __            05825231
IENR    2.51 115.5 Sb       03:58:03.7    -0.2                           T__                        _e            05825232
IENR    2.51 115.5 Sm       03:58:03.7                                   ___           692.0  0.30  __            05825233
ALDR    2.75  61.2 Pb       03:57:34.0    -2.6                           T__                        _e            25416273
ALDR    2.75  61.2 Sb       03:58:09.2    -1.6                           T__                        _e            25416274
ALDR    2.75  61.2 Pb       03:57:33.5    -3.1                           ___                        _e            05825234
ALDR    2.75  61.2 Pm       03:57:33.5                                   ___            22.0  0.10  __            05825235
ALDR    2.75  61.2 Sb       03:58:09.3    -1.6                           T__                        _e            05825236
ALDR    2.75  61.2 Sm       03:58:09.3                                   ___           819.0  0.40  __            05825237
NLYR    2.93 254.6 Pn       03:57:34.4     0.2                           T__                        _e            18250523
NLYR    2.93 254.6          03:58:14.8                                   ___                        _e            18250525
NLYR    2.93 254.6 smax                                                  ___           353.0  1.10  __            18250526
NLYR    2.93 254.6 pmax                                                  ___            90.0  0.40  __            18250524
NLYR    2.93 254.6 Pn       03:57:34.4     0.2                           T__                        _i            25416336
NLYR    2.93 254.6 Pb       03:57:39.1    -0.4                           T__                        _e            25416337
NLYR    2.93 254.6          03:57:41.8                                   ___                        _e            25416338
NLYR    2.93 254.6 Sb       03:58:16.4     0.6                           T__                        _e            25416339
NLYR    2.93 254.6          03:58:19.7                                   ___                        _e            25416340
NLYR    2.93 254.6 max                                                   ___           331.0  0.50  __            25416342
NLYR    2.93 254.6 max                                                   ___            90.0  0.40  __            25416341
NLYR    2.93 254.6 P        03:57:34.4                                   ___                        _i            05825238
NLYR    2.93 254.6 Pb       03:57:39.1    -0.4                           T__                        _e            05825239
NLYR    2.93 254.6 Pm       03:57:39.1                                   ___            90.0  0.40  __            05825240
NLYR    2.93 254.6 Sb       03:58:16.4     0.6                           T__                        _e            05825241
NLYR    2.93 254.6 Sm       03:58:16.4                                   ___           331.0  0.50  __            05825242
TUP     2.99 189.5 Pn       03:57:35.3     0.2                           T__                        _e            18250527
TUP     2.99 189.5 Sn       03:58:10.6    -1.0                           T__                        _e            18250529
TUP     2.99 189.5 smax                                                  ___           726.0  0.60  __            18250530
TUP     2.99 189.5 pmax                                                  ___           177.0  0.60  __            18250528
TUP     2.99 189.5 Pn       03:57:34.8    -0.3                           T__                        _i            25416360
TUP     2.99 189.5          03:57:36.8                                   ___                        _e            25416361
TUP     2.99 189.5 Pb       03:57:39.8    -0.8                           T__                        _i            25416362
TUP     2.99 189.5 Sn       03:58:09.3    -2.3                           T__                        _e            25416363
TUP     2.99 189.5 Sb       03:58:19.0     1.4                           T__                        _i            25416364
TUP     2.99 189.5          03:58:27.1                                   ___                        _e            25416365
TUP     2.99 189.5 max                                                   ___           719.0  0.60  __            25416367
TUP     2.99 189.5 Pmax                                                  ___           176.0  0.70  __            25416366
TUP     2.99 189.5 P        03:57:34.8                                   ___                        _i            05825243
TUP     2.99 189.5 Pb       03:57:39.8    -0.8                           T__                        _i            05825244
TUP     2.99 189.5 Pm       03:57:39.8                                   ___           176.0  0.70  __            05825245
TUP     2.99 189.5 S        03:58:09.3                                   ___                        _e            05825246
TUP     2.99 189.5 Sb       03:58:19.0     1.4                           T__                        _i            05825247
TUP     2.99 189.5 Sm       03:58:19.0                                   ___           719.0  0.60  __            05825248
TNDR    3.12 133.8 Pb       03:57:43.5     0.6                           T__                        __            25416354
TNDR    3.12 133.8 Sb       03:58:23.7     2.3                           T__                        _e            25416355
TNDR    3.12 133.8          03:58:38.5                                   ___                        _e            25416356
TNDR    3.12 133.8 P        03:57:37.3                                   ___                        _e            05825249
TNDR    3.12 133.8 Pb       03:57:43.2     0.3                           T__                        _e            05825250
TNDR    3.12 133.8 Pm       03:57:43.2                                   ___            28.0  0.20  __            05825251
TNDR    3.12 133.8 Sb       03:58:23.1     1.7                           T__                        _e            05825252
TNDR    3.12 133.8 Sm       03:58:23.1                                   ___           607.0  0.40  __            05825253
BOD     3.68 279.9 Pn       03:57:43.6    -1.0                           T__                        _e            18250531
BOD     3.68 279.9 pmax                                                  ___            25.0  0.50  __            18250532
BOD     3.68 279.9 Pn       03:57:45.1     0.5                           T__                        _i            25416278
BOD     3.68 279.9 Pb       03:57:50.8    -1.6                           T__                        _e            25416279
BOD     3.68 279.9 Sb       03:58:38.5     1.0                           T__                        _e            25416280
BOD     3.68 279.9 Smax                                                  ___           265.0  1.30  __            25416282
BOD     3.68 279.9 Pmax                                                  ___            23.0  0.30  __            25416281
BOD     3.68 279.9 P        03:57:45.1                                   ___                        _i            05825254
BOD     3.68 279.9 Pb       03:57:50.8    -1.6                           T__                        _e            05825255
BOD     3.68 279.9 Pm       03:57:50.8                                   ___            23.0  0.30  __            05825256
BOD     3.68 279.9 Sb       03:58:38.5     1.0                           T__                        _e            05825257
BOD     3.68 279.9 Sm       03:58:38.5                                   ___           265.0  1.30  __            05825258
SVKR    4.18 255.6 Pb       03:58:02.6     1.8                           T__                        _e            25416349
SVKR    4.18 255.6          03:58:10.1                                   ___                        _e            25416350
SVKR    4.18 255.6 Sb       03:58:56.5     4.7                           T__                        _e            25416351
SVKR    4.18 255.6 Smax                                                  ___           188.0  0.60  __            25416353
SVKR    4.18 255.6 max                                                   ___            44.0  0.40  __            25416352
SVKR    4.18 255.6 Pb       03:58:02.6     1.8                           T__                        _e            05825259
SVKR    4.18 255.6 Pm       03:58:02.6                                   ___            44.0  0.40  __            05825260
SVKR    4.18 255.6 Sb       03:58:56.5     4.7                           T__                        _e            05825261
SVKR    4.18 255.6 Sm       03:58:56.5                                   ___           188.0  0.60  __            05825262
UKT     4.40 247.7 Pb       03:58:07.8     3.1                           T__                        _e            18250533
UKT     4.40 247.7 pmax                                                  ___            18.0  0.50  __            18250534
UKT     4.40 247.7 Pn       03:57:58.1     3.5                           ___                        _e            25416368
UKT     4.40 247.7 Pb       03:58:06.2     1.5                           T__                        _e            25416369
UKT     4.40 247.7 Sb       03:59:02.9     4.6                           T__                        _i            25416370
UKT     4.40 247.7 Smax                                                  ___            81.0  1.00  __            25416372
UKT     4.40 247.7 Pmax                                                  ___            24.0  0.60  __            25416371
UKT     4.40 247.7 Pb       03:58:06.2     1.5                           T__                        _e            05825263
UKT     4.40 247.7 Pm       03:58:06.2                                   ___            24.0  0.60  __            05825264
UKT     4.40 247.7 Sb       03:59:02.9     4.6                           T__                        _i            05825265
UKT     4.40 247.7 Sm       03:59:02.9                                   ___            81.0  1.00  __            05825266
KROS    4.55 127.7 P        03:57:53.0                                   ___                        _e            05825267
KROS    4.55 127.7 Pb       03:58:05.0    -2.2                           T__                        _i            05825268
KROS    4.55 127.7 Pm       03:58:05.0                                   ___            22.0  0.60  __            05825269
KROS    4.55 127.7 S        03:58:44.1                                   ___                        _e            05825270
KROS    4.55 127.7 Sb       03:59:04.9     2.4                           T__                        _i            05825271
KROS    4.55 127.7 Sm       03:59:04.9                                   ___           290.0  0.60  __            05825272
KROS    4.55 127.7 P        03:59:00.4                                   ___                        _e            05825323
VTMR    4.81 299.0 Pb       03:58:05.8    -5.7                           ___                        _e            25416373
VTMR    4.81 299.0 Pg       03:58:10.6    -8.0                           ___                        _e            25416374
VTMR    4.81 299.0 Sb       03:59:11.1     1.3                           T__                        _e            25416375
VTMR    4.81 299.0 P        03:57:57.3                                   ___                        _e            05825273
VTMR    4.81 299.0 Pb       03:58:12.8     1.3                           T__                        _e            05825274
VTMR    4.81 299.0 Pm       03:58:12.8                                   ___             3.0  0.20  __            05825275
VTMR    4.81 299.0 Sb       03:59:12.3     2.5                           T__                        _e            05825276
VTMR    4.81 299.0 Sm       03:59:12.3                                   ___           348.0  0.60  __            05825277
YOA     5.14 259.9 Sg       03:59:27.3    -4.3                           T__                        _e            25416384
YOA     5.14 259.9 Smax                                                  ___           474.0  1.60  __            25416385
YOA     5.14 259.9 Sg       03:59:27.3    -4.3                           T__                        _e            05825278
YOA     5.14 259.9 Sm       03:59:27.3                                   ___           474.0  1.60  __            05825279
CGD     5.40  71.0 S        03:59:05.7                                   ___                        _e            05825280
CGD     5.40  71.0 Sb       03:59:30.1     3.4                           T__                        _e            05825281
CGD     5.40  71.0 Sm       03:59:30.1                                   ___           236.0  0.40  __            05825282
KMO     5.50 258.4 Pb       03:58:25.5     2.1                           T__                        _e            25416306
KMO     5.50 258.4 Sb       03:59:36.3     6.5                           ___                        _e            25416307
KMO     5.50 258.4          03:59:45.6                                   ___                        _e            25416308
KMO     5.50 258.4 max                                                   ___           149.0  1.40  __            25416310
