DATA_TYPE BULLETIN IMS1.0:short
ISC Bulletin
Event 15622538 Banda Sea
   Date       Time        Err   RMS Latitude Longitude  Smaj  Smin  Az Depth   Err Ndef Nsta Gap  mdist  Mdist Qual   Author      OrigID
2010/01/01 00:18:32.48   5.76 1.310  -6.5798  129.0056 136.3  18.9  70 170.9  59.6    4      192  14.26  67.34     uk IDC       16654436
2010/01/01 00:18:32.50   0.62 1.128  -6.5083  129.5960 7.938 6.421   9 165.0f        21   13  83   4.44  67.60 m i ke ISCJB     00508749
2010/01/01 00:18:33.27   0.87 2.035  -6.5499  129.5860 10.83 8.390  94 165.0f        20   13  87   4.48  29.07 m i ke ISC       00011570
 (#PRIME)

Magnitude  Err Nsta Author      OrigID
mb     3.3 0.3    1 IDC       16654436
mb1    3.9 0.2    3 IDC       16654436
mb1mx  3.3 0.2   18 IDC       16654436
mbtmp  3.6 0.2    3 IDC       16654436
mb     3.5        1 ISCJB     00508749

Sta     Dist  EvAz Phase        Time      TRes  Azim AzRes   Slow   SRes Def   SNR       Amp   Per Qual Magnitude    ArrID
FAKI    4.48  36.5 Pn       00:19:40.119  -0.1   4.5                     T__  59.2                  __            62601744
FAKI    4.48  36.5 Sn       00:20:29.819  -2.6   4.5                     T__  21.3                  __            62601745
SOEI    6.15 238.5 Pn       00:20:03.319   1.0   6.2                     T__   3.2                  __            62601754
SOEI    6.15 238.5 Sn       00:21:11.819  -0.4   6.2                     T__   4.9                  __            62601755
MTN     6.44 166.4 Pn       00:20:08.195   2.2   6.6                     T__  55.2                  __            62601751
MTN     6.44 166.4 Sn       00:21:16.07   -2.7   6.6                     T__  12.0                  __            62601752
KDU     6.73 155.2 Pn       00:20:12.15    2.3   6.9                     T__  95.4                  __            62601746
KDU     6.73 155.2 Sn       00:21:25.85    0.1   6.9                     T__  10.1                  __            62601747
LUWI    8.73 308.6 Pn       00:20:36.77    0.5   8.6                     T__   3.3                  __            62601750
KNRA    9.11 185.0 Pn       00:20:41.62    0.3   9.2                     T__  43.4                  __            62601748
KNRA    9.11 185.0 Sn       00:22:17.72   -5.0   9.2                     T__   9.1                  __            62601749
WRA    14.09 161.3 Pn       00:21:45.05   -0.8 341.9        12.30        T__  34.0       1.3  0.33  __            57922597
WRA    14.09 161.3 Sn       00:24:19.1    -3.4 333.7        22.20        T__   8.1       1.9  0.33  __            57922598
COEN   15.26 119.9 P        00:22:02.67    1.2  15.4                     T__  19.2                  __            62601743
QIS    16.98 146.1 Pn       00:22:22.42    1.2  17.2                     T__  11.8                  __            62601753
ASAR   17.52 166.7 Pn       00:22:28.2     0.6 342.0        10.10        T__ 143.2       1.4  0.33  __            57922594
ASAR   17.52 166.7 S        00:25:41.05    0.9 339.6        20.80        T__   7.8       0.4  0.33  __            57922595
WRKA   18.43 183.7 Pn       00:22:37.345  -1.0  18.6                     T__  12.5                  __            62601756
WRKA   18.43 183.7 S        00:25:59.37    1.3  18.6                     T__   4.2                  __            62601757
CMSA   29.07 150.8 P        00:24:19.22    1.0  29.3                     T__   7.5                  __            62601742
MKAR   67.63 326.9 P        00:29:09.025  -3.3 120.9         7.80        ___             0.4  0.39  __            57922596

Event 15622540 Hokkaido region
   Date       Time        Err   RMS Latitude Longitude  Smaj  Smin  Az Depth   Err Ndef Nsta Gap  mdist  Mdist Qual   Author      OrigID
2010/01/01 00:36:00                  41.2000  138.9000f                  5.0                                          NIED      17046407
2010/01/01 00:36:46.03   2.04 0.841  41.1844  138.9429 6.864 5.215  23   6.0  13.7   28   22  62   0.98  76.11 m i ke ISCJB     00508750
2010/01/01 00:36:46.93   0.67 0.740  41.1291  138.9985  20.4  15.8 103   0.0f        16      132   4.63  76.12     uk IDC       16654438
2010/01/01 00:36:47.60   0.10        41.1900  138.9400         0.8  -1  28.0   1.0                                    JMA       15217953
2010/01/01 00:36:47.30   1.67 0.914  41.2077  139.0448 7.601 5.920  61   2.9  11.3   28   22  61   0.93  76.04 m i ke ISC       00011571
 (#PRIME)

Magnitude  Err Nsta Author      OrigID
Mw     3.8          NIED      17046407
mb     3.6       10 ISCJB     00508750
MS     4.4        1 ISCJB     00508750
mb     3.6 0.1   10 IDC       16654438
mb1    3.8 0.1   13 IDC       16654438
mb1mx  3.7 0.1   28 IDC       16654438
mbtmp  3.6 0.1   13 IDC       16654438
ML     2.9 0.3    3 IDC       16654438
MS     3.7 0.6    2 IDC       16654438
Ms1    3.7 0.6    2 IDC       16654438
ms1mx  2.6 0.4   39 IDC       16654438
       3.7          JMA       15217953
mb     3.7 0.2   10 ISC       00011571

Sta     Dist  EvAz Phase        Time      TRes  Azim AzRes   Slow   SRes Def   SNR       Amp   Per Qual Magnitude    ArrID
JOSM    0.93  20.1 Pg       00:37:05.2     0.0                           T__                        __            26333844
JIW     0.95 129.8 Pg       00:37:05.6     0.0                           T__                        __            26333845
JIW     0.95 129.8 Sg       00:37:18.4     0.5                           T__                        _e            26333846
JSI2    1.04  97.8 Pb       00:37:07.4    -0.6                           T__                        __            26333847
JSI2    1.04  97.8 Sb       00:37:21.7    -0.3                           T__                        _e            26333848
JSR     1.08  72.3 Pb       00:37:08.8     0.1                           T__                        __            26333849
JSR     1.08  72.3 Sb       00:37:23.7     0.5                           T__                        _e            26333850
JYM2    1.35  47.1 Pn       00:37:12.1    -0.9                           T__                        __            26333851
JOT     1.52  82.8 Pn       00:37:14.8    -0.6                           T__                        __            26333852
JAH     1.58 129.6 Pn       00:37:15.2    -1.0                           T__                        __            26333853
JAH     1.58 129.6 Sn       00:37:35.7    -1.5                           T__                        _e            26333854
JKB     1.64  64.9 Pn       00:37:17.1     0.1                           T__                        __            26333855
MJAR    4.71 188.2 Pn       00:37:59.091  -0.1  13.1        13.30        T__  13.4       1.2  0.33  __            57922608
MJAR    4.71 188.2 Sn       00:38:54.588   0.3 339.5        15.50        T__   2.7                  __            57922609
USRK    6.00 302.2 Pn       00:38:15.775  -1.1 107.7        13.40        T__  26.2       0.6  0.33  __            57922614
USRK    6.00 302.2 Sn       00:39:23.925  -2.1 113.5        23.60        T__  10.6       1.2  0.33  __            57922615
USRK    6.00 302.2 LR       00:40:32.246        39.9        37.50        ___           134.3 18.19  __            57922616
KSRS    9.40 250.1 Pn       00:39:03.8     0.3  64.1        13.90        T__   7.7       0.3  0.33  __            57922606
KSRS    9.40 250.1 Sn       00:40:51.475   1.8  66.1        23.60        T__   5.6       0.5  0.33  __            57922607
ZALV   37.81 308.5 P        00:44:06.164   1.5  60.9        10.10        ___   2.5       0.2  0.35  __            57922619
ZALV   37.81 308.5 PcP      00:46:21.2     0.0  90.0         1.40        T__   3.6       0.5  0.55  __            57922620
ILAR   47.02  34.3 P        00:45:20.05    0.5 265.9         5.10        T__   9.4       0.4  0.91  __            57922605
WRA    60.99 185.1 P        00:47:00.6    -1.4   2.5         7.60        T__  23.9       1.1  0.55  __            57922617
YKA    61.14  30.6 P        00:47:02.645   0.1 317.3         5.50        T__   3.1       0.1  0.66  __            57922618
FINES  64.27 330.6 P        00:47:24.121   0.7  64.0         6.30        T__   2.3       1.9  0.77  __            57922604
ASAR   64.72 185.2 P        00:47:26.6    -0.2   4.1         7.00        T__   5.4       0.5  0.80  __            57922603
NOA    69.63 335.8 P        00:47:57.625   0.0  42.0         6.00        T__   2.7       1.1  0.86  __            57922610
AKASG  69.89 320.4 P        00:47:58.875  -0.4  45.0         5.60        T__   2.9       0.2  0.47  __            57922602
NVAR   73.95  52.9 P        00:48:25.575   1.3 300.5         4.10        T__   3.5       0.2  0.39  __            57922611
PDAR   76.04  45.0 P        00:48:37.2     1.0 325.3         1.40        T__   2.6       0.7  0.50  __            57922612
SADO   87.81  26.1 LR       01:32:04.805       187.7        37.70        ___           154.4 20.54  __            57922613

