Event 14212625 Yunnan
   Date       Time        Err   RMS Latitude Longitude  Smaj  Smin  Az Depth   Err Ndef Nsta Gap  mdist  Mdist Qual   Author      OrigID
2010/01/01 02:08:20.31   0.14 1.285  26.2263   99.8542 2.836 2.553  27  10.0f       355  340  36   2.83  91.42 m i se ISCJB     00508751
2010/01/01 02:08:20.50        2.440  26.3000   99.7600                   5.0         66       85   0.30  32.00     uk BJI       14211215
2010/01/01 02:08:21.90   0.17 0.970  26.2900   99.8660   5.2   4.0  57  10.0f        97       42   2.84 165.04     se NEIC      16339000
2010/01/01 02:08:23.70   1.01        26.2650   99.9240   7.8   4.5 117  33.0        100                               MOS       14580935
2010/01/01 02:08:24.67   4.04 0.760  26.2969   99.9521  12.3   9.9  41  27.1  28.8   39       69   7.86 148.55     uk IDC       16654439
2010/01/01 02:08:25.50   0.40 1.500  26.2700   99.6800                  10.0f                124                      BKK       16306330
2010/01/01 02:08:21.91   0.24 1.704  26.1849   99.8523 4.176 3.930  50  10.0f       371  340  36   2.81 165.09 m i se ISC       00011572
 (#PRIME)

Magnitude  Err Nsta Author      OrigID
mb     4.7      108 ISCJB     00508751
MS     4.0       13 ISCJB     00508751
mb     4.7       44 BJI       14211215
mB     4.9       25 BJI       14211215
ML     4.7       10 BJI       14211215
Ms     4.6       40 BJI       14211215
Ms7    4.4       39 BJI       14211215
mb     5.0       35 NEIC      16339000
mb     5.0       51 MOS       14580935
mb     4.3 0.1   30 IDC       16654439
mb1    4.4 0.1   31 IDC       16654439
mb1mx  4.4 0.1   34 IDC       16654439
mbtmp  4.5 0.1   31 IDC       16654439
ML     5.0 0.3    1 IDC       16654439
MS     3.8 0.1    7 IDC       16654439
Ms1    3.9 0.1    7 IDC       16654439
ms1mx  3.3 0.2   45 IDC       16654439
M      5.1       13 BKK       16306330
mb     4.7 0.4   13 BKK       16306330
mB     5.2        3 BKK       16306330
MLv    5.3 0.5    4 BKK       16306330
       4.6        3 BKK       16306330
mb     4.8 0.3  106 ISC       00011572
MS     4.0 0.1   13 ISC       00011572

Sta     Dist  EvAz Phase        Time      TRes  Azim AzRes   Slow   SRes Def   SNR       Amp   Per Qual Magnitude    ArrID
KMI     2.81 111.5 Pb       02:09:10.4    -2.0                           T__                        __            14834873
KMI     2.81 111.5 Sn       02:09:44.8     3.5                           T__                        __            14834874
KMI     2.81 111.5 Sg       02:09:52.7     0.4                           T__                        __            14834875
KMI     2.81 111.5 smax                                                  ___          9690.0  0.70  __            14834876
KMI     2.81 111.5 smax                                                  ___          7660.0  0.70  __            14834877
KMI     2.81 111.5 Pb       02:09:10.4    -2.0                           T__                        __            18249730
KMI     2.81 111.5          02:09:44.8                                   ___                        __            18249731
KMI     2.81 111.5 Pb       02:09:10.4    -2.0                           T__                        __            50540419
KMI     2.81 111.5 Pg       02:09:17.2     1.3                           T__                        __            50540420
KMI     2.81 111.5 Sn       02:09:44.8     3.5                           T__                        __            50540421
KMI     2.81 111.5 Sg       02:09:52.7     0.4                           T__                        __            50540422
CD2     5.83  35.2 Pn       02:09:50.0     1.5                           T__                        __            14834829
CD2     5.83  35.2 Sn       02:11:00.1     4.7                           T__                        __            14834830
CD2     5.83  35.2 Sg       02:11:28.6    -0.4                           T__                        __            14834831
CD2     5.83  35.2 smax                                                  ___           440.0  1.70  __            14834832
CD2     5.83  35.2 LR                                                    ___         10400.0  8.30  __            14834833
CD2     5.83  35.2 LR                                                    ___         12600.0 10.70  __            14834834
CD2     5.83  35.2 LR                                                    ___          2950.0  7.70  __            14834835
SLVN    6.09 141.6 Pn       02:09:53.68    1.6                           T__           102.7  0.70  _e            50540458
SLVN    6.09 141.6 Pg       02:10:17.22   -1.4                           T__                        _e            50540459
SLVN    6.09 141.6 Sg       02:11:39.46    1.9                           T__                        _e            50540460
GYA     6.12  85.9 Pn       02:09:55.1     2.6                           T__                        _i            14834855
GYA     6.12  85.9 Sn       02:11:04.6     1.9                           T__                        __            14834856
GYA     6.12  85.9 Sg       02:11:38.9     0.5                           T__                        __            14834857
GYA     6.12  85.9 smax                                                  ___           170.0  1.00  __            14834858
GYA     6.12  85.9 smax                                                  ___           220.0  1.10  __            14834859
GYA     6.12  85.9 LR                                                    ___          2240.0 10.30  __            14834860
GYA     6.12  85.9 LR                                                    ___          2400.0  8.10  __            14834861
GYA     6.12  85.9 LR                                                    ___          2780.0  8.10  __            14834862
CMAI    6.27 187.0 Pn       02:09:57.3     2.7                           T__             1.2        __            49841575
SHL     7.20 266.8 Pn       02:10:06.45   -1.1                           T__                        _e            30741409
SHL     7.20 266.8 AMB      02:10:13.37                                  ___            52.5  0.38  __            30741410
CHTO    7.38 186.7 Pn       02:10:12.3     2.5                           T__                        _e            18249732
CHTO    7.38 186.7          02:11:35.7                                   ___                        _e            18249734
CHTO    7.38 186.7 pmax                                                  ___            99.0  0.60  __            18249733
CHTO    7.38 186.7 Pn       02:10:12.34    2.5                           T__            99.5  0.60  _e            50540381
CHTO    7.38 186.7 Pg       02:10:39.37   -4.0                           ___                        _e            50540382
CHTO    7.38 186.7 Sn       02:11:35.72    2.0                           T__                        _e            50540383
CHTO    7.38 186.7 Sg       02:12:18.62   -0.4                           T__                        _e            50540384
LAMP    7.63 181.6 Pn       02:10:16.2     3.0                           T__             0.3        __            49841576
CM31    7.74 186.4 Pn       02:10:17.44    2.8                           T__            79.2  0.60  _e            50540385
CMAR    7.74 186.4 Pn       02:10:17.95    3.3                           ___                        __            50540386
CMAR    7.74 186.4 Pg       02:10:47.05   -3.0                           ___                        __            50540387
CMAR    7.74 186.4 Lg       02:12:34.14                                  ___                        __            50540388
CMAR    7.74 186.4 Pn       02:10:17.95    3.3   1.3        12.80        ___ 152.8       6.2  0.33  __            57922630
CMAR    7.74 186.4 Pg       02:10:47.05   -3.0 357.6        17.80        ___  25.9       7.5  0.33  __            57922631
CMAR    7.74 186.4 Lg       02:12:34.139       359.0        31.50        ___  11.0       6.7  0.33  __            57922632
CMAR    7.74 186.4 LR       02:13:17.274       359.2        37.20        ___           466.6 19.07  __            57922633
MHMT    8.17 193.0 Pn       02:10:24.4     3.8                           ___             0.4        __            49841577
LSA     8.46 296.4 Pn       02:10:17.1    -7.8                           ___                        __            14407514
LSA     8.46 296.4 Pn       02:10:24.6    -0.3                           T__                        _e            18249737
LSA     8.46 296.4 pmax                                                  ___            57.0  0.60  __            18249738
LSA     8.46 296.4 Pn       02:10:24.62   -0.3                           T__            57.5  0.60  _e            50540431
ENH     9.42  62.2 Pn       02:10:37.19   -0.6                           T__            45.1  0.60  _e            50540397
PBKT    9.62 173.6 Pn       02:10:46.6     6.1                           ___            16.0  1.99  __            49841578
CHAI   10.42 168.6 Pn       02:11:05.2    13.7                           ___                        __            49841579
LZH    10.45  18.1 Pn       02:10:52.9     1.0                           T__                        _e            14834889
LZH    10.45  18.1 pP       02:10:55.8                                   ___                        __            14834890
LZH    10.45  18.1 sP       02:10:58.3                                   ___                        __            14834891
LZH    10.45  18.1 Sn       02:12:50.1     1.0                           T__                        _e            14834892
LZH    10.45  18.1 SnSn     02:13:03.4     2.1                           T__                        __            14834893
LZH    10.45  18.1 pmax                                                  ___            42.0  1.00  __            14834894
LZH    10.45  18.1 pmax                                                  ___           160.0  5.80  __            14834895
LZH    10.45  18.1 LR                                                    ___           900.0  9.00  __            14834896
LZH    10.45  18.1 LR                                                    ___          2570.0 10.60  __            14834897
LZH    10.45  18.1 LR                                                    ___          1570.0 10.80  __            14834898
TAPN   10.91 278.8 Pn       02:10:56.8    -1.7                           T__           164.4  0.64  _e            08739413
XAN    11.08  42.9 Pn       02:10:59.1    -1.4                           T__                        __            14834952
XAN    11.08  42.9 Sn       02:13:03.4    -1.2                           T__                        __            14834953
XAN    11.08  42.9 pmax                                                  ___             5.0  0.70  __            14834954
XAN    11.08  42.9 LR                                                    ___          2550.0 12.60  __            14834955
XAN    11.08  42.9 LR                                                    ___           700.0 13.90  __            14834956
XAN    11.08  42.9 LR                                                    ___           310.0 11.30  __            14834957
ODAN   11.18 276.2 Pn       02:11:01.0    -1.1                           T__           232.1  0.74  _e            08739409
KHLT   11.39 186.2 Pn       02:11:11.1     6.3                           ___            13.1  1.27  __            49841580
QIZ    11.65 125.6 Pn       02:11:08.0    -0.3                           T__                        __            14834914
QIZ    11.65 125.6 Sn       02:13:18.8     0.2                           T__                        __            14834915
QIZ    11.65 125.6 pmax                                                  ___            30.0  1.90  __            14834916
QIZ    11.65 125.6 pmax                                                  ___           120.0  4.30  __            14834917
QIZ    11.65 125.6 LR                                                    ___          2670.0 13.30  __            14834918
QIZ    11.65 125.6 LR                                                    ___          1160.0 13.20  __            14834919
QIZ    11.65 125.6 LR                                                    ___          2680.0 12.80  __            14834920
QIZ    11.65 125.6 Pn       02:11:08.82    0.5                           T__                        _e            50540450
SRDT   11.79 183.5 Pn       02:11:15.5     5.2                           ___            56.7  1.23  __            49841581
RAMN   11.89 276.6 Pn       02:11:10.3    -1.5                           T__           183.6  0.81  _e            08739412
JIRN   12.28 279.9 Pn       02:11:15.8    -1.5                           T__           107.4  0.48  _e            08739406
GUN    12.57 281.0 Pn       02:11:19.2    -2.0                           T__           160.0  0.56  _e            08739405
BOK    12.89 262.4 Pn       02:11:24.62   -0.6                           T__                        _e            30741399
BOK    12.89 262.4 AMB      02:11:25.94                                  ___            34.0  0.41  __            30741400
PKI    12.97 279.3 Pn       02:11:24.0    -2.6                           T__           104.2  0.70  _e            08739410
PKIN   12.98 279.4 Pn       02:11:24.1    -2.6                           T__            62.8  0.60  _e            08739411
KKN    13.09 280.3 Pn       02:11:25.8    -2.4                           T__           219.1  0.62  _e            08739407
GTA    13.19 359.9 Pn       02:11:32.3     2.9                           T__                        _e            14834844
GTA    13.19 359.9 P        02:11:36.6    -2.9                           T__                        __            14834845
GTA    13.19 359.9 sP       02:11:39.7                                   ___                        __            14834846
GTA    13.19 359.9 Sn       02:13:57.9     1.7                           T__                        __            14834847
GTA    13.19 359.9 S        02:14:04.6   -16.6                           ___                        __            14834848
GTA    13.19 359.9 SnSn     02:14:14.1     5.3                           T__                        __            14834849
GTA    13.19 359.9 pmax                                                  ___             6.0  1.20  __            14834850
GTA    13.19 359.9 pmax                                                  ___           210.0  5.20  __            14834851
GTA    13.19 359.9 LR                                                    ___           940.0 12.30  __            14834852
GTA    13.19 359.9 LR                                                    ___          1160.0 12.60  __            14834853
GTA    13.19 359.9 LR                                                    ___          1260.0 10.00  __            14834854
DMN    13.24 279.4 Pn       02:11:27.4    -2.8                           T__            72.1  0.59  _e            08739403
WHN    13.48  67.9 Pn       02:11:34.0     0.7                           T__                        __            14834938
WHN    13.48  67.9 Sn       02:13:58.5    -4.7                           T__                        __            14834939
WHN    13.48  67.9 LR                                                    ___          2660.0  9.80  __            14834940
WHN    13.48  67.9 LR                                                    ___          2400.0 10.60  __            14834941
WHN    13.48  67.9 LR                                                    ___          1780.0 11.40  __            14834942
CHBT   13.56 169.6 P        02:11:39.4    -4.2                           ___            20.3  0.83  __            49841582
GKN    13.68 281.0 Pn       02:11:32.6    -3.5                           ___            71.5  0.50  _e            08739404
DANN   14.47 282.2 Pn       02:11:42.3    -4.9                           ___            82.5  0.54  _e            08739402
DGPR   14.48 208.0 Pn       02:11:47.25    0.2                           T__                        _e            30741402
KOLN   14.58 279.9 Pn       02:11:44.6    -3.9                           ___           104.0  0.88  _e            08739408
VIS    17.48 244.5 Pn       02:12:23.52   -2.3                           T__                        _e            30741413
VIS    17.48 244.5 AMB      02:12:38.28                                  ___            23.9  0.75  __            30741414
HHC    17.56  30.7 Pn       02:12:27.2     0.3                           T__                        _e            14834863
HHC    17.56  30.7 pP       02:12:30.4    -0.4                           T__                        __            14834864
HHC    17.56  30.7 PnPn     02:12:41.3     4.0                           T__                        __            14834865
HHC    17.56  30.7 Sn       02:15:40.5    -2.0                           T__                        _e            14834866
HHC    17.56  30.7 SnSn     02:16:06.0     9.9                           T__                        __            14834867
HHC    17.56  30.7 pmax                                                  ___            27.0  0.80  __            14834868
HHC    17.56  30.7 pmax                                                  ___           200.0  3.70  __            14834869
HHC    17.56  30.7 LR                                                    ___           720.0  6.90  __            14834870
HHC    17.56  30.7 LR                                                    ___          2020.0  7.40  __            14834871
HHC    17.56  30.7 LR                                                    ___          1020.0  9.60  __            14834872
NJ2    17.59  66.2 P        02:12:29.2     0.9                           T__                        _e            14834908
NJ2    17.59  66.2 Sn       02:15:42.0    -1.3                           T__                        __            14834909
NJ2    17.59  66.2 pmax                                                  ___            80.0  1.00  __            14834910
NJ2    17.59  66.2 LR                                                    ___          1310.0 18.50  __            14834911
NJ2    17.59  66.2 LR                                                    ___          1370.0 21.00  __            14834912
NJ2    17.59  66.2 LR                                                    ___          1180.0 10.40  __            14834913
TIA    17.81  51.7 P        02:12:30.6    -0.1                           T__                        __            14834933
TIA    17.81  51.7 pmax                                                  ___            40.0  1.10  __            14834934
TIA    17.81  51.7 LR                                                    ___          1600.0 11.30  __            14834935
TIA    17.81  51.7 LR                                                    ___          1100.0 11.90  __            14834936
TIA    17.81  51.7 LR                                                    ___           580.0  8.90  __            14834937
SSE    19.35  70.4 P        02:12:46.7    -0.9                           T__                        __            14834927
SSE    19.35  70.4 pmax                                                  ___            20.0  0.80  __            14834928
SSE    19.35  70.4 pmax                                                  ___           180.0  4.40  __            14834929
SSE    19.35  70.4 LR                                                    ___           370.0 11.10  __            14834930
SSE    19.35  70.4 LR                                                    ___           460.0 10.90  __            14834931
SSE    19.35  70.4 LR                                                    ___           610.0  8.20  __            14834932
BJT    19.38  40.6 P        02:12:47.74   -0.1                           T__            21.0  0.50  _e            50540373
