Event 15622545 Southern Sumatera
   Date       Time        Err   RMS Latitude Longitude  Smaj  Smin  Az Depth   Err Ndef Nsta Gap  mdist  Mdist Qual   Author      OrigID
2010/01/01 04:41:09.79   7.18 0.490  -1.9070  100.1132 138.9  63.0  13   0.0f         5      307  20.27  57.10     uk IDC       16654449
2010/01/01 04:41:19.20   1.30 1.000  -1.3800   99.4100                  13.0f                299                      DJA       15298073
2010/01/01 04:41:17.85   1.92 1.614  -1.4885   99.4324 19.89 9.645   1  33.0f        13   11 265   1.18  56.57 m i ke ISC       00011583
 (#PRIME)

Magnitude  Err Nsta Author      OrigID
mb     3.5 0.2    4 IDC       16654449
mb1    3.6 0.1    4 IDC       16654449
mb1mx  3.4 0.1   23 IDC       16654449
mbtmp  3.6 0.2    4 IDC       16654449
M      3.9        4 DJA       15298073
MLv    3.9 0.3    4 DJA       15298073
mb     3.9 0.6    5 ISC       00011583

Sta     Dist  EvAz Phase        Time      TRes  Azim AzRes   Slow   SRes Def   SNR       Amp   Per Qual Magnitude    ArrID
PDSI    1.18  60.9 Pb       04:41:38.4    -1.3                           T__            16.3        __            27768504
PDSI    1.18  60.9 Sb       04:41:55.2     0.5                           T__            16.3        __            27768505
PPI     1.41  43.3 Pn       04:41:41.3     0.1                           T__             4.6        __            27768506
PPI     1.41  43.3 Sb       04:42:01.1    -0.1                           T__             4.6        __            27768507
MNSI    2.27   3.7 Pn       04:41:54.5     1.4                           T__             0.5        __            27768508
MNSI    2.27   3.7 Sn       04:42:22.5     2.5                           T__             0.5        __            27768509
BKNI    2.42  41.7 Pb       04:42:00.0    -0.7                           T__                        __            27768510
BKNI    2.42  41.7 Sb       04:42:27.1    -3.0                           T__                        __            27768511
GSI     3.34 326.2 Pb       04:42:14.3    -2.1                           T__                        __            27768512
CMAR   19.83 358.6 Pn       04:45:46.7    -1.0 192.2        11.10        T__   3.4       0.3  0.28  __            57922902
JNU    45.44  37.9 P        04:49:29.525  -4.4 205.8         6.60        ___   6.3      11.9  0.78  __            57922903
SONM   49.50   6.2 P        04:50:05.585   0.3 197.0         7.60        T__   3.1       0.1  0.40  __            57922906
MKAR   50.39 344.8 P        04:50:12.84    0.9 149.5         8.20        T__   7.9       0.7  0.58  __            57922905
KURBB  54.90 343.9 P        04:50:52.275   7.1 166.2         7.30        ___   5.3       0.3  0.63  __            57922904
ZALV   56.57 349.7 P        04:50:57.725   0.6 165.4         7.40        T__   3.8       1.6  0.57  __            57922907

Event 14325964 Philippine Islands region
   Date       Time        Err   RMS Latitude Longitude  Smaj  Smin  Az Depth   Err Ndef Nsta Gap  mdist  Mdist Qual   Author      OrigID
2010/01/01 04:42:51.20        1.430   4.6200  126.9300                 100.0          6      342  33.70  54.90     uk BJI       14211219
2010/01/01 04:42:51.70   0.24 1.149   5.1316  127.2790 4.811 2.965 160  76.0f       116  107  67   2.07  98.01 m i se ISCJB     00508759
2010/01/01 04:42:53.63   1.11 0.720   5.0270  127.1210  12.3   5.8  66  80.8  10.1   33      118   2.54 122.88     se NEIC      16339010
2010/01/01 04:42:56.81   6.74 0.540   4.9662  127.0546  31.7  13.0  71 111.0  64.8   16      138  25.77 122.83     uk IDC       16654450
2010/01/01 04:42:58.10   0.70 1.000   4.8200  127.1700                  48.0  20.0           231                      DJA       15298072
2010/01/01 04:43:10           0.480   6.2060  126.1370                   1.0              10                          MAN       16865637
2010/01/01 04:42:53.34   0.42 1.338   5.1032  127.2491 9.075 5.675  74  76.0f       107  107  67   2.08 122.97 m i se ISC       00011584
 (#PRIME)

Magnitude  Err Nsta Author      OrigID
mb     4.4        4 BJI       14211219
mb     4.3       27 ISCJB     00508759
mb     4.4       12 NEIC      16339010
mb     4.1 0.1   15 IDC       16654450
mb1    4.2 0.1   15 IDC       16654450
mb1mx  4.0 0.1   25 IDC       16654450
mbtmp  4.1 0.1   15 IDC       16654450
M      4.8       13 DJA       15298072
mb     4.9 0.2   13 DJA       15298072
mB     5.2 0.1    8 DJA       15298072
MLv    5.0 0.1    9 DJA       15298072
       4.6 0.4    8 DJA       15298072
mb     4.9          MAN       16865637
ML     3.8          MAN       16865637
MS     3.9          MAN       16865637
mb     4.4 0.1   26 ISC       00011584

Sta     Dist  EvAz Phase        Time      TRes  Azim AzRes   Slow   SRes Def   SNR       Amp   Per Qual Magnitude    ArrID
MATI    2.08 331.7 Pn       04:43:25.46   -0.8                           T__                        _e            60425667
SGSI    2.22 230.7 Pn       04:43:27.6    -0.5                           T__            26.4        __            27768483
SGSI    2.22 230.7 Sn       04:43:53.9    -0.8                           T__            26.4        __            27768484
GSPH    2.49 293.2 Pn       04:43:28.63   -3.2                           ___       2659850.0        _e            60425668
DAV     2.56 319.7 Pn       04:43:32.51   -0.3                           T__                        _e            50541032
DAV     2.56 319.7 Sn       04:44:03.7     0.7                           T__                        _e            50541033
DMPH    2.62 318.7 Pn       04:43:37.06    3.5                           ___        709850.0        _e            60425669
DMPH    2.62 318.7 Sn       04:44:10.06    5.7                           T__                        _e            60425670
GAMI    3.29 170.6 x        04:43:44.2                                   ___             6.9        __            27768485
GAMI    3.29 170.6 x        04:44:20.4                                   ___             6.9        __            27768486
BUKP    3.51 321.9 Pn       04:43:46.27    0.6                           T__                        _e            60425671
BUKP    3.51 321.9 Sn       04:44:11.45  -14.7                           ___                        _e            60425672
CTBH    3.65 305.3 Pn       04:43:48.34    0.8                           T__        111700.0        _i            60425673
BUTP    4.17 337.3 Pn       04:43:56.01    1.5                           T__                        _e            60425674
CGP     4.19 322.8 Pn       04:43:57.06    2.2                           T__         57200.0        _i            60425675
CGP     4.19 322.8 Sn       04:44:48.93    6.4                           ___                        _i            60425676
TNTI    4.30 178.4 Pn       04:43:57.3     0.9                           T__             2.3        __            27768487
PAGZ    4.71 305.6 Pn       04:44:02.96    1.0                           T__                        _e            60425677
IPIL    5.36 300.1 Pn       04:44:13.07    2.2                           T__                        _e            60425678
MSLP    5.53 334.8 Pn       04:44:15.71    2.5                           T__                        _e            60425679
LBMI    5.71 177.5 Pn       04:44:16.7     1.1                           T__             1.4        __            27768488
GTOI    6.13 223.8 Pn       04:44:21.0    -0.4                           T__             0.5        __            27768489
MRSI    7.01 229.2 Pn       04:44:33.6     0.1                           T__             0.4        __            27768490
MRSI    7.01 229.2 Sn       04:45:52.9     1.1                           T__             0.4        __            27768491
SWI     7.15 145.8 Pn       04:44:37.2     1.8                           T__             0.3        __            27768492
SWI     7.15 145.8 Sn       04:45:57.8     2.6                           T__             0.3        __            27768493
PALU    7.52  72.4 Pn       04:44:37.911  -2.4   7.3                     T__   4.2                  __            62601781
PALU    7.52  72.4 Sn       04:45:54.211  -9.9   7.3                     ___   5.9                  __            62601782
LUWI    7.57 216.3 Pn       04:44:44.0     3.0                           T__             0.6        __            27768494
LUWI    7.57 216.3 Sn       04:46:08.2     2.9                           T__             0.6        __            27768495
LUWI    7.57 216.3 Pn       04:44:44.02    3.0   7.8                     T__   8.7                  __            62601778
APSI    8.18 223.3 Pn       04:44:51.1     1.6                           T__             0.4        __            27768496
NLAI    8.29 181.0 Pn       04:44:50.6    -0.3                           T__          1571.2        __            27768497
MYLDM   8.71 270.9 x        04:44:59.7                                   ___            52.2  1.18  __            27768498
FAKI    9.40 147.8 Pn       04:45:08.0     1.9                           T__            58.5  0.95  __            27768499
FAKI    9.40 147.8 Pn       04:45:07.17    1.0   9.4                     T__  12.9                  __            62601773
FAKI    9.40 147.8 Sn       04:46:51.619   1.3   9.4                     T__   4.6                  __            62601774
TTSI   10.98 222.7 Pn       04:45:30.3     2.6                           T__            22.5  0.81  __            27768500
MMSI   11.37 227.3 x        04:45:34.2                                   ___            54.7  0.83  __            27768501
SPSI   11.70 219.8 Pn       04:45:37.7     0.2                           T__            16.2  0.56  __            27768502
BBKI   15.04 235.8 Pn       04:46:23.9     2.2                           T__          1368.5        __            27768503
MTN    18.24 167.8 P        04:46:59.795  -1.0  18.3                     T__  11.9                  __            62601780
KDU    18.42 163.7 P        04:47:02.55   -0.2  18.5                     T__   5.8                  __            62601776
JAGI   18.77 224.2 Pn       04:47:07.869  -0.0  19.0                     T__   5.2                  __            62601775
KNRA   20.70 175.9 P        04:47:27.97    0.4  20.9                     T__  15.4                  __            62601777
COEN   24.67 140.3 P        04:48:07.82    0.6                           T__                        _e            50541031
WRA    25.85 164.6 P        04:48:18.07    0.1                           T__                        __            50541052
WRA    25.85 164.6 P        04:48:18.075   0.1 345.0        10.30        T__  81.1      25.3  0.89  __            57922922
IPM    26.14 269.8 P        04:48:19.16   -1.6                           T__            10.0  0.80  _e            50541038
KULM   26.49 271.6 P        04:48:22.98   -0.9                           T__            12.1  1.10  _e            50541040
QIS    28.24 154.9 P        04:48:40.045   0.6  28.3                     T__   9.1                  __            62601783
AS31   29.32 167.5 P        04:48:48.86   -0.2                           T__                        _e            50541024
ASAR   29.32 167.5 P        04:48:48.3    -0.7                           T__                        __            50541025
ASAR   29.32 167.5 P        04:48:48.3    -0.7 351.4         7.90        T__  51.9       2.2  0.56  __            57922910
WRKA   29.98 178.1 P        04:48:55.32    0.5  30.2                     T__  11.2                  __            62601786
CMAR   30.66 298.0 P        04:48:59.86   -1.0                           T__                        __            50541030
CMAR   30.66 298.0 P        04:48:59.861  -1.0 118.7         7.50        T__   2.9       0.3  0.29  __            57922913
MEEK   32.64 194.4 P        04:49:22.145   3.9  32.9                     ___   4.5                  __            62601779
XAN    33.45 331.7 P        04:49:24.2    -1.0                           T__                        __            14835170
XAN    33.45 331.7 pmax                                                  ___             3.0  1.10  __            14835171
QLP    35.54 153.3 P        04:49:43.57    0.3  35.6                     T__   4.7                  __            62601784
FORT   35.69 178.8 P        04:49:42.14   -2.3                           T__            22.4  0.90  _e            50541036
BBOO   38.62 168.1 P        04:50:09.57    0.2  38.8                     T__  20.1                  __            62601771
USRK   39.16   5.4 P        04:50:14.86    1.2 147.5        13.70        T__   3.2       4.0  1.00  __            57922921
STKA   39.23 160.5 P        04:50:14.47    0.0                           T__             4.9  0.80  _e            50541048
STKA   39.23 160.5 P        04:50:13.325  -1.1 337.8         8.10        T__  55.3      17.8  0.63  __            57922919
STKA   39.23 160.5 P        04:50:13.2    -1.2  39.4                     T__  40.8                  __            62601785
SHL    39.50 304.7 P        04:50:16.0    -1.1                           T__                        _e            30741467
CMSA   40.46 155.4 P        04:50:25.395   0.8  40.6                     T__  12.6                  __            62601772
ARMA   42.34 148.0 P        04:50:41.695   1.5  42.4                     T__   5.6                  __            62601769
TAPN   43.64 304.9 P        04:50:50.4    -0.6                           T__            14.1  0.58  _e            08739436
ODAN   43.72 304.1 P        04:50:50.7    -0.9                           T__            20.8  0.75  _e            08739432
ARPS   43.83 163.0 P        04:50:53.085   1.1  44.0                     T__  12.1                  __            62601770
RAMN   44.40 303.8 P        04:50:56.7    -0.4                           T__            25.8  0.78  _e            08739435
JIRN   45.01 304.5 P        04:51:01.4    -0.6                           T__            20.7  0.62  _e            08739429
GUN    45.36 304.7 P        04:51:04.1    -0.7                           T__            20.7  0.55  _e            08739428
PKI    45.62 304.1 P        04:51:05.1    -1.7                           T__             8.1  0.76  _e            08739433
PKIN   45.63 304.1 P        04:51:05.9    -0.9                           T__                        _e            08739434
KKN    45.80 304.3 P        04:51:06.9    -1.2                           T__                        _e            08739430
DMN    45.88 304.0 P        04:51:07.6    -1.2                           T__            19.6  0.96  _e            08739426
ULN    45.99 341.1 P        04:51:09.94    0.8                           T__             5.6  1.10  _e            50541051
SONM   46.18 340.6 P        04:51:11.24    0.6                           T__                        __            50541047
SONM   46.18 340.6 P        04:51:11.24    0.6 157.3         8.00        T__   9.3       1.3  0.63  __            57922918
GKN    46.41 304.3 P        04:51:11.6    -1.2                           T__                        _e            08739427
KOLN   47.19 303.5 P        04:51:18.3    -0.6                           T__            23.4  0.66  _e            08739431
DANN   47.26 304.3 P        04:51:18.8    -0.8                           T__            27.4  0.72  _e            08739425
PEA0B  53.97  22.2 P        04:52:09.37    0.0                           T__                        _e            50541045
PETK   53.97  22.2 P        04:52:10.63    1.3                           T__                        __            50541046
PETK   53.97  22.2 P        04:52:10.625   1.3  34.3         3.90        T__   6.2       6.1  0.94  __            57922917
MK31   56.74 324.5 P        04:52:29.55    0.2                           T__                        _e            50541042
MKAR   56.74 324.5 P        04:52:29.82    0.4                           T__                        __            50541043
MKAR   56.74 324.5 P        04:52:29.825   0.4 124.0         8.30        T__ 110.5       7.2  0.56  __            57922916
TKM2   59.08 317.8 P        04:52:45.46   -0.6                           T__             2.4  0.70  _e            50541049
ZAA0   59.61 332.5 P        04:52:49.03   -0.2                           T__                        _e            50541053
ZALV   59.61 332.5 P        04:52:48.2    -1.1                           T__                        __            50541054
ZALV   59.61 332.5 P        04:52:48.2    -1.1 122.5         7.00        T__  16.7       4.4  0.59  __            57922923
EKS2   60.20 316.9 P        04:52:54.47    0.8                           T__             1.3  0.80  _e            50541034
KURK   60.87 326.9 P        04:52:58.0     0.1                           T__                        __            50541041
KURBB  60.88 326.8 P        04:52:58.0     0.1 126.3         6.10        T__  65.7       5.6  0.80  __            57922915
KKAR   62.59 316.4 P        04:53:08.99   -0.7                           T__             1.8  0.70  _e            50541039
BVAR   66.46 326.5 P        04:53:34.71    0.0                           T__                        __            50541029
BVAR   66.46 326.5 P        04:53:34.712   0.0 122.7         7.40        T__  29.0       4.4  0.59  __            57922912
ABKAR  71.42 320.4 P        04:54:05.44   -0.1                           T__             3.9  0.70  _e            50541021
JOF    88.20 332.9 P        04:55:38.2     2.4                           T__                        _e            29746904
INK    88.70  21.5 P        04:55:37.09   -1.0                           T__             2.6  1.10  _e            50541037
ARCES  89.35 339.9 P        04:55:40.7    -0.4                           T__                        __            50541023
ARCES  89.35 339.9 P        04:55:40.7    -0.4  77.0         4.10        T__   7.1       2.0  0.80  __            57922909
BR131  89.55 309.7 P        04:55:42.2    -0.7                           T__             0.5  0.50  _e            50541026
BRTR   89.55 309.7 P        04:55:42.05   -0.8                           T__                        __            50541027
BRTR   89.55 309.7 P        04:55:42.05   -0.8 127.9         5.00        T__   6.3       1.3  0.91  __            57922911
KAF    90.63 332.5 P        04:55:47.5     0.3                           T__             1.2  0.50  _e            29746888
FINES  90.87 331.9 P        04:55:46.83   -1.5                           T__                        __            50541035
FINES  90.87 331.9 P        04:55:46.825  -1.5 225.0         1.60        T__  11.6       2.6  0.97  __            57922914
AKASG  91.16 321.0 P        04:55:48.28   -1.6                           T__                        __            50541022
AKASG  91.16 321.0 P        04:55:48.275  -1.6  65.2         5.30        T__   4.8       0.5  0.53  __            57922908
BUR08  94.33 318.5 P        04:56:05.15    0.4                           T__                        _e            50541028
NAO01  98.02 333.7 Pdif     04:56:21.53    0.4                           ___             3.6  0.80  _e            50541044
TORD  122.97 289.1 PKPdf    05:01:41.33   -0.7                           T__                        __            50541050
TORD  122.97 289.1 PKPdf    05:01:41.325  -0.7  68.6         1.90        T__   4.6       0.3  0.56  __            57922920

