Event 14212626 Xizang
   Date       Time        Err   RMS Latitude Longitude  Smaj  Smin  Az Depth   Err Ndef Nsta Gap  mdist  Mdist Qual   Author      OrigID
2010/01/01 02:22:21.86   0.49 0.840  30.5727   83.8844  15.0  10.6  20   0.0f        37      110  14.20 150.75     uk IDC       16654440
2010/01/01 02:22:22.04   0.89 1.238  30.7248   83.8338 3.728 2.634  39   6.3  5.92  327  325  16   2.37  85.93 m i ke ISCJB     00508752
2010/01/01 02:22:22.20   0.55 0.370  30.9878   83.5868  11.9   7.8 148  10.0   0.0   16   16 309   2.64   5.29     ke DMN       13837363
2010/01/01 02:22:23.80   0.20        30.4300   83.9100 1.112 1.112  -1  16.4   1.0  252  103                          GCMT      17050678
 (#CENTROID)
2010/01/01 02:22:23.82   0.23 1.090  30.6460   83.7910   7.2   4.2  39  10.0f        84       79   6.44 150.65     se NEIC      16339001
2010/01/01 02:22:24.00        2.000  30.9400   84.0000                   6.0         55      211   6.30  38.80     uk BJI       14211216
2010/01/01 02:22:25.10   2.61 0.900  30.4360   83.7120  16.4  11.3  -1  10.0f             21 194                      NDI       15492691
2010/01/01 02:22:25.50   1.41        30.6520   83.7810   7.7   4.1 117  33.0         92                               MOS       14580936
2010/01/01 02:22:24.33   0.44 1.877  30.6109   83.7968 4.416 3.601   6  12.3  2.60  368  325  16   2.25 150.67 m i ke ISC       00011573
 (#PRIME)

Magnitude  Err Nsta Author      OrigID
mb     4.3 0.0   31 IDC       16654440
mb1    4.4 0.0   33 IDC       16654440
mb1mx  4.4 0.0   36 IDC       16654440
mbtmp  4.3 0.0   33 IDC       16654440
ML     4.2 0.3    2 IDC       16654440
MS     4.5 0.0   34 IDC       16654440
Ms1    4.5 0.0   34 IDC       16654440
ms1mx  4.4 0.1   44 IDC       16654440
mb     4.6       98 ISCJB     00508752
MS     4.5       46 ISCJB     00508752
Ml     5.4 0.2    3 DMN       13837363
MW     5.2      103 GCMT      17050678
mb     4.8       32 NEIC      16339001
mb     4.7       46 BJI       14211216
mB     5.2       32 BJI       14211216
Ms     5.1       49 BJI       14211216
Ms7    4.8       45 BJI       14211216
mb     4.8          NDI       15492691
mb     4.8          NEIC      15492691
mb     4.8       56 MOS       14580936
MS     4.5       19 MOS       14580936
mb     4.7 0.2   98 ISC       00011573
MS     4.6 0.1   48 ISC       00011573

Sta     Dist  EvAz Phase        Time      TRes  Azim AzRes   Slow   SRes Def   SNR       Amp   Per Qual Magnitude    ArrID
DANN    2.25 180.8 Pn       02:23:02.6     0.9                           T__                        _e            08739515
DANN    2.25 180.8 Sb       02:23:32.5    -0.6                           T__         23526.8  1.10  _e            08739516
PYUN    2.60 195.9 Pn       02:23:07.5     1.1                           T__                        _e            08739528
PYUN    2.60 195.9 Sn       02:23:39.9     1.9                           T__          7151.9  0.78  _e            08739529
GKN     2.70 164.0 Pn       02:23:09.8     2.1                           T__                        _e            08739518
GKN     2.70 164.0 Sb       02:23:45.4    -0.4                           T__          1998.0  0.34  _e            08739519
KOLN    2.84 183.5 Pn       02:23:11.3     1.7                           T__                        _e            08739524
KKN     3.10 154.9 Pn       02:23:15.1     1.9                           T__                        _e            08739522
KKN     3.10 154.9 Sb       02:23:54.6    -2.7                           T__                        _e            08739523
DMN     3.20 158.7 Pn       02:23:16.8     2.1                           T__                        _e            08739517
GUN     3.25 145.4 Pn       02:23:17.4     2.0                           T__                        _e            08739520
PTH     3.28 252.1 Pn       02:23:16.2     0.5                           T__                        _e            30741443
PTH     3.28 252.1 Sn       02:23:50.9    -3.8                           T__                        _e            30741444
LGTI    3.29 250.3 Pn       02:23:22.3     6.7                           ___                        _e            30741434
LGTI    3.29 250.3 Sg       02:24:11.4     1.4                           T__                        _e            30741435
PKIN    3.33 154.8 Pn       02:23:18.4     1.9                           T__                        _e            08739527
PKI     3.34 154.6 Pn       02:23:18.6     1.9                           T__                        _e            08739526
JIRN    3.61 144.0 Pn       02:23:22.5     2.1                           T__                        _e            08739521
RAMN    4.40 145.3 Pn       02:23:32.2     1.0                           T__                        _e            08739530
ODAN    4.89 138.9 Pn       02:23:39.5     1.6                           T__                        _e            08739525
DDI     4.96 268.1 Pn       02:23:38.77    0.0                           T__                        _e            30741423
SMLA    5.72 276.9 Pn       02:23:50.85    1.8                           T__                        _e            30741449
SDNR    5.92 280.3 Pn       02:23:57.0     5.1                           ___                        _e            30741445
NDI     6.04 253.1 Pn       02:23:53.0    -0.5                           T__                        _e            30741436
BHK     6.39 279.1 Pg       02:24:28       1.4                           T__                        _e            30741418
LSA     6.43  96.3 Pn       02:24:02.6     3.3                           ___                        __            14835034
LSA     6.43  96.3 Pn       02:24:02.2     2.9                           T__                        _e            18249947
LSA     6.43  96.3 pmax                                                  ___          1075.0  1.40  __            18249948
LSA     6.43  96.3 Pn       02:24:02.19    2.9                           T__          1074.8  1.40  _e            50540540
DHRM    6.61 286.2 Pn       02:24:01.08   -0.5                           T__                        _e            30741426
JHNI    6.92 223.5 Pn       02:24:05      -0.5                           T__                        _e            30741429
JHNI    6.92 223.5 Sn       02:25:22      -2.2                           T__                        _e            30741430
BOK     7.04 164.2 Pn       02:24:07.15   -0.1                           T__                        _e            30741421
BOK     7.04 164.2 AMB      02:24:09.88                                  ___           193.1  1.08  __            30741422
SHL     8.73 123.2 Pn       02:24:29.55   -1.0                           T__                        _e            30741446
SHL     8.73 123.2 AMB      02:24:31.83                                  ___           136.9  1.33  __            30741447
SHL     8.73 123.2 Sn       02:26:09.0    -0.1                           T__                        _e            30741448
BHPL    9.28 219.3 Pn       02:24:36.95   -1.1                           T__                        _e            30741419
BHPL    9.28 219.3 AMB      02:24:39.52                                  ___            55.4  2.04  __            30741420
CHCP    9.43 291.5 Pn       02:24:42.2     2.1                           T__                        __            25616276
SARP    9.61 280.7 Pn       02:24:42.9     0.4                           T__                        __            25616361
NGP    10.34 205.5 Pn       02:24:51.52   -1.0                           T__                        _e            30741437
NGP    10.34 205.5 AMB      02:24:57.7                                   ___            34.5  1.48  __            30741438
THW    10.50 285.1 Pn       02:24:54.2    -0.4                           T__                        __            25616323
CEP    10.57 290.7 Pn       02:24:55.7     0.0                           T__                        __            25616196
CEP    10.57 290.7 Sn       02:26:52      -2.0                           T__                        __            25616197
KSH    10.95 326.3 Pn       02:24:59.2    -1.7                           T__                        __            14835025
KSH    10.95 326.3 sP       02:25:05.5                                   ___                        _e            14835026
KSH    10.95 326.3 PnPn     02:25:07.3    -1.4                           T__                        _e            14835027
KSH    10.95 326.3 Sn       02:26:56.6    -6.8                           ___                        __            14835028
KSH    10.95 326.3 pmax                                                  ___            24.0  0.90  __            14835029
KSH    10.95 326.3 pmax                                                  ___           200.0  2.80  __            14835030
KSH    10.95 326.3 LR                                                    ___          4030.0  8.40  __            14835031
KSH    10.95 326.3 LR                                                    ___          5800.0  8.10  __            14835032
KSH    10.95 326.3 LR                                                    ___          3010.0  6.60  __            14835033
AKL    11.60 213.3 Pn       02:25:07.49   -2.3                           T__                        _i            30741415
AKL    11.60 213.3 AMB      02:25:10.67                                  ___           103.4  0.00  __            30741416
VIS    12.84 182.0 Pn       02:25:24.76   -1.9                           T__                        _e            30741450
VIS    12.84 182.0 AMB      02:25:26.67                                  ___            31.7  1.09  __            30741451
KBL    13.04 291.3 Pn       02:25:28.5    -1.1                           T__                        _e            18249949
KBL    13.04 291.3          02:27:54.2                                   ___                        _e            18249950
KBL    13.04 291.3 Pn       02:25:28.5    -1.1                           T__                        _e            50540518
KBL    13.04 291.3 Sn       02:27:54.18   -0.6                           T__                        _e            50540519
ULHL   13.10 334.5 Pn       02:25:30.1    -0.3                           T__                        _i            18249951
ULHL   13.10 334.5 Pn       02:25:30.1    -0.3                           T__   7.2                  __            19590436
KZA    13.35 331.4 Pn       02:25:32.1    -1.8                           T__                        _i            18249952
KZA    13.35 331.4 Pn       02:25:32.16   -1.8                           T__   7.1                  __            19590433
WMQ    13.54  12.1 Pn       02:25:38.4     2.1                           T__                        __            14835078
WMQ    13.54  12.1 P        02:25:40.1    -5.3                           ___                        __            14835079
WMQ    13.54  12.1 sP       02:25:45.1                                   ___                        __            14835080
WMQ    13.54  12.1 PnPn     02:25:49.3     5.0                           T__                        __            14835081
WMQ    13.54  12.1 Sn       02:28:04.5    -2.2                           T__                        __            14835082
WMQ    13.54  12.1 PcP      02:31:05.2     2.5                           T__                        __            14835083
WMQ    13.54  12.1 PcS      02:34:38.1     0.8                           T__                        __            14835084
WMQ    13.54  12.1 pmax                                                  ___            41.0  1.50  __            14835085
WMQ    13.54  12.1 pmax                                                  ___           350.0  4.90  __            14835086
WMQ    13.54  12.1 LR                                                    ___          2690.0 13.90  __            14835087
WMQ    13.54  12.1 LR                                                    ___          7800.0 22.30  __            14835088
WMQ    13.54  12.1 LR                                                    ___          1710.0 24.20  __            14835089
UCH    13.78 329.8 Pn       02:25:38.0    -1.9                           T__                        _i            18249953
UCH    13.78 329.8 Pn       02:25:38.07   -1.9                           T__  27.6                  __            19590435
TKM2   13.92 334.2 Pn       02:25:41.2    -0.4                           T__                        _e            18249954
TKM2   13.92 334.2 Pn       02:25:43.32    1.7                           T__  14.2                  __            19590434
TKM2   13.92 334.2 Pn       02:25:41.2    -0.4                           T__                        _e            50540564
KBK    13.95 331.9 P        02:25:52.22    2.1                           T__   5.4                  __            19590432
HYB    13.98 201.2 Pn       02:25:37.0    -5.3                           ___                        _i            27285931
HYB    13.98 201.2 Sn       02:28:16.0    -1.5                           T__                        _e            27285932
HYB    13.98 201.2 Pn       02:25:38.6    -3.7                           ___                        _e            30741428
AML    14.07 327.5 Pn       02:25:41.7    -2.1                           T__                        _i            18249955
AML    14.07 327.5 Pn       02:25:41.73   -2.1                           T__  16.4                  __            19590429
AAK    14.12 330.7 Pn       02:25:43.4    -0.9                           T__                        _i            18249956
AAK    14.12 330.7 pmax                                                  ___            71.0  2.50  __            18249957
AAK    14.12 330.7 Pn       02:25:43.59   -0.7                           T__                        __            50540479
AAK    14.12 330.7 Pn       02:25:43.588  -0.7 130.8        13.50        T__   9.8       0.6  0.33  __            57922669
AAK    14.12 330.7 LR       02:31:20.835       121.4        38.00        ___          1135.2 19.09  __            57922670
FRU    14.23 331.5 Pn       02:25:44.0    -1.7                           T__                        _e            18249958
FRU    14.23 331.5 pmax                                                  ___           200.0  2.00  __            18249959
CHMS   14.32 332.2 Pn       02:25:47.3     0.5                           T__                        _i            18249960
CHMS   14.32 332.2 Pn       02:25:47.39    0.5                           T__   5.3                  __            19590430
EKS2   14.45 329.1 Pn       02:25:47.4    -1.4                           T__                        _i            18249961
EKS2   14.45 329.1 Pn       02:25:47.4    -1.4                           T__  12.0                  __            19590431
EKS2   14.45 329.1 Pn       02:25:48.14   -0.7                           T__                        _e            50540505
BHJ    14.58 243.2 Pn       02:25:48.22   -2.3                           T__                        _e            30741417
POO    15.04 219.2 Pn       02:25:54.79   -2.0                           T__                        _e            30741440
POO    15.04 219.2 AMB      02:25:56.53                                  ___            28.1  1.35  __            30741441
POO    15.04 219.2 S        02:28:56.0    -4.9                           T__                        _i            30741442
GTA    15.77  51.9 Pn       02:26:04.7    -1.7                           T__                        _e            14834985
GTA    15.77  51.9 P        02:26:09.0    -1.3                           T__                        __            14834986
GTA    15.77  51.9 sP       02:26:11.8    -3.6                           T__                        __            14834987
GTA    15.77  51.9 Sn       02:28:58.3    -2.8                           T__                        __            14834988
GTA    15.77  51.9 sS       02:29:03.0   -18.4                           ___                        __            14834989
GTA    15.77  51.9 S        02:29:17.5     1.6                           T__                        __            14834990
GTA    15.77  51.9 pmax                                                  ___           340.0  5.50  __            14834991
GTA    15.77  51.9 LR                                                    ___          5990.0 17.10  __            14834992
GTA    15.77  51.9 LR                                                    ___          3320.0 12.60  __            14834993
GTA    15.77  51.9 LR                                                    ___          3750.0 13.50  __            14834994
MK31   16.20 356.3 Pn       02:26:11.8     0.1                           T__                        _e            18249962
MK31   16.20 356.3 Pn       02:26:11.82    0.1                           T__                        _e            50540544
MKAR   16.20 356.3 Pn       02:26:12.0     0.2                           T__                        _e            18249963
MKAR   16.20 356.3 Pn       02:26:11.95    0.2                           T__                        _e            50540545
KKAR   16.36 323.3 Pn       02:26:10.9    -2.9                           T__                        _e            18249964
KKAR   16.36 323.3 Pn       02:26:10.86   -2.9                           T__                        _e            50540523
CD2    17.16  83.9 Pn       02:26:22.9    -1.2                           T__                        _i            14834965
CD2    17.16  83.9 P        02:26:26.5     0.8                           T__                        __            14834966
CD2    17.16  83.9 sP       02:26:29.6    -1.1                           T__                        __            14834967
CD2    17.16  83.9 PnPn     02:26:37.2     3.3                           T__                        __            14834968
CD2    17.16  83.9 Sn       02:29:32.6    -2.3                           T__                        __            14834969
CD2    17.16  83.9 S        02:29:37.9    -6.4                           T__                        __            14834970
CD2    17.16  83.9 SnSn     02:29:53.6     5.5                           T__                        __            14834971
CD2    17.16  83.9 pmax                                                  ___            90.0  1.70  __            14834972
CD2    17.16  83.9 pmax                                                  ___           290.0  8.20  __            14834973
CD2    17.16  83.9 LR                                                    ___          7210.0 10.70  __            14834974
CD2    17.16  83.9 LR                                                    ___          2850.0  7.70  __            14834975
CD2    17.16  83.9 LR                                                    ___          3650.0  9.50  __            14834976
CMAI   17.39 124.1 Pn       02:26:27.1    -0.0                           T__            35.7  1.53  __            49841583
LZH    17.61  66.6 Pn       02:26:30.1     0.4                           T__                        _e            14835035
LZH    17.61  66.6 pP       02:26:33.1    -1.1                           T__                        __            14835036
LZH    17.61  66.6 sP       02:26:34.8    -1.0                           T__                        __            14835037
LZH    17.61  66.6 PnPn     02:26:38.1    -2.0                           T__                        __            14835038
LZH    17.61  66.6 Sn       02:29:39.5    -6.3                           T__                        _e            14835039
LZH    17.61  66.6 SnSn     02:30:04.3     5.1                           T__                        __            14835040
LZH    17.61  66.6 pmax                                                  ___            35.0  1.20  __            14835041
