Event 14212628 Caspian Sea
   Date       Time        Err   RMS Latitude Longitude  Smaj  Smin  Az Depth   Err Ndef Nsta Gap  mdist  Mdist Qual   Author      OrigID
2010/01/01 02:34:53.20   1.05        40.8480   51.9230   5.0   3.4  37  29.0        154                               MOS       14580937
2010/01/01 02:34:54.61   0.31 1.044  40.7796   51.9500 3.760 2.078  11  42.9  3.24 1087 1027  18   1.42  99.34 m i ke ISCJB     00508754
2010/01/01 02:34:54.70   0.64 0.300  40.5770   51.7950   9.5   2.9  -1  15.0   0.0        11 230                      THR       00006140
2010/01/01 02:34:55.10        1.260  40.8700   51.8100                  51.0         35      315  18.30  55.20     uk BJI       14211217
2010/01/01 02:34:55.81   0.40 0.860  40.6274   51.8653  11.8   7.0   2  45.0   2.9   69      118   7.34 137.03     uk IDC       16654441
2010/01/01 02:34:56.05   0.18 0.880  40.7260   51.9250   5.1   2.8 174  46.1        148       82   5.51 137.10     se NEIC      16339005
2010/01/01 02:34:56.10   0.08 0.970  40.8021   52.0079   3.5   2.3 177  46.6        336  282  26   1.46 137.19     ke CSEM      17104462
2010/01/01 02:34:57.57   0.11 1.480  40.4113   51.8060  17.9   2.2 265  42.2   1.1   31      303   1.26   5.00     uk AZER      15798340
2010/01/01 02:35:00.15   2.24 1.610  41.3651   52.6092  21.8  18.4  75   0.0         15      249   9.42  21.86     uk NNC       14149445
2010/01/01 02:35:14.50               41.1570   49.0970                  33.0f                                         SZGRF     14943702
2010/01/01 02:34:56.27   0.20 1.223  40.8058   51.9338 3.329 2.396 174  46.8  1.68 1192 1027  17   2.27 137.13 m i ke ISC       00011576
 (#PRIME)

Magnitude  Err Nsta Author      OrigID
mb     5.0       59 MOS       14580937
MS     4.4        7 MOS       14580937
mb     4.7      150 ISCJB     00508754
MS     4.2        9 ISCJB     00508754
ML     4.6          THR       00006140
mb     4.7       26 BJI       14211217
mB     5.1       15 BJI       14211217
Ms     4.4       12 BJI       14211217
Ms7    4.2       11 BJI       14211217
mb     4.3 0.1   31 IDC       16654441
mb1    4.4 0.1   39 IDC       16654441
mb1mx  4.4 0.1   41 IDC       16654441
mbtmp  4.3 0.1   39 IDC       16654441
MS     3.6 0.1    3 IDC       16654441
Ms1    3.5 0.2    3 IDC       16654441
ms1mx  2.9 0.2   38 IDC       16654441
mb     5.0       60 NEIC      16339005
mb     4.7 0.4   96 CSEM      17104462
Ms     4.4          CSEM      17104462
mb     5.0          NNC       14149445
mb     4.5          SZGRF     14943702
MS     4.4          SZGRF     14943702
mb     4.7 0.2  148 ISC       00011576
MS     4.4 0.1    9 ISC       00011576

Sta     Dist  EvAz Phase        Time      TRes  Azim AzRes   Slow   SRes Def   SNR       Amp   Per Qual Magnitude    ArrID
GALA    1.41 254.3 Pn       02:35:22.412   2.9                           ___  34.5                  __            37623996
GALA    1.41 254.3 Pn       02:35:22.4     2.9                           ___  34.5                  __            67988477
NDR     1.50 262.0 Pn       02:35:23.655   3.0                           ___  49.4                  __            37624012
NDR     1.50 262.0 Pn       02:35:23.7     3.0                           ___  49.4                  __            67988601
GOBA    1.72 257.1 Pn       02:35:26.825   3.0                           ___  11.6                  __            37624001
GOBA    1.72 257.1 Pn       02:35:26.8     3.0                           ___  11.6                  __            67988492
ATGJ    2.27 272.4 Pn       02:35:33.256   1.8                           T__  89.3                  __            37623993
ATGJ    2.27 272.4 Pn       02:35:33.3     1.8                           T__  89.3                  __            67988404
SIZA    2.31 277.7 Pn       02:35:34.144   2.1                           T__ 126.6                  __            37624019
SIZA    2.31 277.7 Sn       02:36:04.332   5.0                           T__                        __            37624020
SIZA    2.31 277.7 Pn       02:35:34.1     2.1                           T__ 126.6                  __            67988656
SIZA    2.31 277.7 Sn       02:36:04.3     5.0                           T__                        __            67988657
ALIB    2.39 250.2 Pn       02:35:35.331   2.4                           T__                        __            37623992
ALIB    2.39 250.2 Pn       02:35:35.3     2.4                           T__                        __            67988393
PQL     2.54 270.7 Pn       02:35:37.055   2.0                           T__  34.9                  __            37624013
PQL     2.54 270.7 Sn       02:36:06.393   1.6                           T__                        __            37624014
PQL     2.54 270.7 Pn       02:35:37.1     2.0                           T__  34.9                  __            67988627
PQL     2.54 270.7 Sn       02:36:06.4     1.6                           T__                        __            67988628
QUBA    2.66 283.0 Pn       02:35:38.994   2.3                           T__ 215.2                  __            37624015
QUBA    2.66 283.0 Sn       02:36:10.165   2.5                           T__                        __            37624016
QUBA    2.66 283.0 Pn       02:35:39.0     2.3                           T__ 215.2                  __            67988633
QUBA    2.66 283.0 Sn       02:36:10.2     2.5                           T__                        __            67988634
IML     2.85 271.0 Pn       02:35:40.794   1.5                           T__  45.1                  __            37624002
IML     2.85 271.0 Sn       02:36:14.339   2.0                           T__                        __            37624003
IML     2.85 271.0 Pn       02:35:40.8     1.5                           T__  45.1                  __            67988515
IML     2.85 271.0 Sn       02:36:14.3     2.0                           T__                        __            67988516
KDMR    2.89 262.7 Pn       02:35:40.583   0.9                           T__  15.3                  __            37624004
KDMR    2.89 262.7 Sn       02:36:14.542   1.3                           T__                        __            37624005
DRN     2.97 295.5 Pn       02:35:43.8     2.9                           T__                        di            18250165
DRN     2.97 295.5 pmax                                                  ___           131.0  0.20  __            18250166
DRN     2.97 295.5 Pn       02:35:43.8     2.9                           T__           131.0  0.20  _i            67988452
GLBA    3.13 241.3 Pn       02:35:43.298   0.2                           T__ 396.0                  __            37623999
GLBA    3.13 241.3 Sn       02:36:17.388  -1.9                           T__                        __            37624000
GLBA    3.13 241.3 Pn       02:35:43.3     0.2                           T__ 396.0                  __            67988487
GLBA    3.13 241.3 Sn       02:36:17.4    -1.9                           T__                        __            67988488
LKRN    3.21 230.3 Pn       02:35:43.179  -1.0                           T__ 793.1                  __            37624006
LKRN    3.21 230.3 Sn       02:36:17.737  -3.4                           T__                        __            37624007
LKRN    3.21 230.3 Pn       02:35:43.2    -1.0                           T__ 793.1                  __            67988560
LKRN    3.21 230.3 Sn       02:36:17.7    -3.4                           T__                        __            67988561
LRK     3.51 233.2 Pn       02:35:47.018  -1.5                           T__                        __            37624008
LRK     3.51 233.2 Sn       02:36:25.32   -3.6                           T__                        __            37624009
LRK     3.51 233.2 Pn       02:35:47.0    -1.5                           T__                        __            67988568
LRK     3.51 233.2 Sn       02:36:25.3    -3.6                           T__                        __            67988569
SEKA    3.61 278.0 Pn       02:35:50.95    1.3                           T__ 200.9                  __            37624017
SEKA    3.61 278.0 Sn       02:36:31.773   0.8                           T__                        __            37624018
SEKA    3.61 278.0 Pn       02:35:51.0     1.3                           T__ 200.9                  __            67988648
SEKA    3.61 278.0 Sn       02:36:31.8     0.8                           T__                        __            67988649
BRDA    3.66 263.0 Pn       02:35:51.548   1.1                           T__  26.4                  __            37623994
BRDA    3.66 263.0 Sn       02:36:33.342   1.0                           T__                        __            37623995
BRDA    3.66 263.0 Pn       02:35:51.5     1.1                           T__  26.4                  __            67988412
BRDA    3.66 263.0 Sn       02:36:33.3     1.0                           T__                        __            67988413
MNSR    3.68 302.4 Pn       02:35:53.8     3.2                           ___                        _e            18250167
MNSR    3.68 302.4 pmax                                                  ___           225.0  0.20  __            18250168
MNSR    3.68 302.4 Pn       02:35:53.8     3.2                           ___           225.0  0.20  _e            67988589
GRMI    3.70 238.6 Pn       02:35:50.3    -0.7                           T__                        _e            67988495
GRMI    3.70 238.6 Pn       02:35:50.28   -0.7                           T__                        _e            00257807
MAK     3.95 304.5 Pn       02:35:55.5     1.3                           T__                        _e            18250169
MAK     3.95 304.5          02:36:04.0                                   ___                        _e            18250171
MAK     3.95 304.5          02:36:46.2                                   ___                        _e            18250172
MAK     3.95 304.5 pmax                                                  ___           204.0  0.70  __            18250170
MAK     3.95 304.5 Pn       02:35:55.5     1.3                           T__           204.0  0.70  _e            67988574
MAK     3.95 304.5 Pn       02:36:04.0     9.8                           ___                        _e            67988575
ZKTA    4.09 283.5 Pn       02:35:58.069   1.8                           T__  97.6                  __            37624021
ZKTA    4.09 283.5 Sn       02:36:44.698   1.8                           T__                        __            37624022
GANJ    4.27 269.7 Pn       02:35:58.424  -0.3                           T__  46.5                  __            37623997
GANJ    4.27 269.7 Sn       02:36:45.231  -2.0                           T__                        __            37623998
GANJ    4.27 269.7 Pn       02:35:58.4    -0.3                           T__  46.5                  __            67988478
GANJ    4.27 269.7 Sn       02:36:45.2    -2.0                           T__                        __            67988479
DBC     4.40 301.8 Pn       02:36:03.9     3.3                           ___                        ci            18250173
DBC     4.40 301.8 Sn       02:36:53.1     2.4                           T__                        _i            18250174
DBC     4.40 301.8 Pn       02:36:03.9     3.3                           ___                        _i            67988442
DBC     4.40 301.8 Sn       02:36:53.1     2.4                           T__                        _i            67988443
MRVT    4.50 132.9 Pn       02:36:03.2     1.2                           T__           360.0  0.20  _e            67988593
MRVT    4.50 132.9 Pn       02:36:03.15    1.2                           T__                        _e            00257809
MRVT    4.50 132.9 AML      02:36:51.94                                  ___           596.6  0.48  __            00257810
MRVT    4.50 132.9 AML      02:36:52.92                                  ___           359.8  0.24  __            00257811
CHTH    4.93 187.7 Pn       02:36:06.8    -1.2                           T__                        _e            67988428
CHTH    4.93 187.7 Pn       02:36:06.84   -1.2                           T__                        _e            00257803
DGRG    5.00 279.6 Pn       02:36:09.655   0.9                           T__                        __            25309257
DGRG    5.00 279.6 Sn       02:37:04.821  -0.4                           T__                        __            25309258
DGRG    5.00 279.6 Pn       02:36:09.7     0.9                           T__                        __            67988446
DGRG    5.00 279.6 Sn       02:37:04.8    -0.4                           T__                        __            67988447
DAMV    5.17 179.7 Pn       02:36:10.9    -0.4                           T__           709.0  0.30  _e            67988440
DAMV    5.17 179.7 Pn       02:36:10.94   -0.4                           T__                        _e            00257804
DAMV    5.17 179.7 AML      02:37:09.05                                  ___           709.0  0.32  __            00257805
NAX     5.21 253.8 Pn       02:36:12.34    0.7                           T__  49.3                  __            37624010
NAX     5.21 253.8 Sn       02:37:10.487   0.0                           T__                        __            37624011
NAX     5.21 253.8 Pn       02:36:12.3     0.7                           T__  49.3                  __            67988597
NAX     5.21 253.8 Sn       02:37:10.5     0.0                           T__                        __            67988598
SEAG    5.46 282.4 Pn       02:36:14.848  -0.2                           T__                        __            25309265
SEAG    5.46 282.4 Sn       02:37:13.445  -3.1                           T__                        __            25309266
SEAG    5.46 282.4 Pn       02:36:14.8    -0.2                           T__                        __            67988647
TBLG    5.50 282.0 Pn       02:36:15.707   0.1                           T__                        __            25309253
TBLG    5.50 282.0 Sn       02:37:15.425  -2.2                           T__                        __            25309254
TBLG    5.50 282.0 Pn       02:36:15.7     0.1                           T__                        __            67988678
GNI     5.52 265.5 Pn       02:36:17.43    1.3                           T__                        _e            50540710
GNI     5.52 265.5 Sn       02:37:19.16    0.8                           T__                        _e            50540711
GNI     5.52 265.5 Pn       02:36:17.086   1.0 323.0         1.80        T__  46.3       9.1  0.33  __            57922776
GNI     5.52 265.5 Sn       02:37:18.336  -0.0  38.5         7.10        T__   4.3      15.0  0.33  __            57922777
GNI     5.52 265.5 Pn       02:36:16.945   0.8                           T__  83.7                  _i            66710855
GNI     5.52 265.5 Pn       02:36:16.9     0.8                           T__  83.7                  __            67988489
GNI     5.52 265.5 Pn       02:36:17.4     1.3                           T__                        _e            67988490
GNI     5.52 265.5 Sn       02:37:19.2     0.8                           T__                        _e            67988491
DUS     5.58 285.7 Pn       02:36:19.427   2.6                           T__                        __            25309255
DUS     5.58 285.7 Sn       02:37:16.139  -3.6                           T__                        __            25309256
DUS     5.58 285.7 Pn       02:36:19.4     2.6                           T__                        __            67988454
MAKU    5.75 257.7 Pn       02:36:20.1     0.9                           T__                        _e            67988576
MAKU    5.75 257.7 Pn       02:36:20.08    0.9                           T__                        _e            00257808
SHRO    5.78 145.1 Pn       02:36:20.8     1.3                           T__                        _e            67988655
SHRO    5.78 145.1 Pn       02:36:20.84    1.3                           T__                        _e            00257813
GUDG    5.83 289.0 Pn       02:36:21.942   1.6                           T__                        __            25309259
GUDG    5.83 289.0 Sn       02:37:27.613   1.7                           T__                        __            25309260
GUDG    5.83 289.0 Pn       02:36:21.9     1.6                           T__                        __            67988497
GUDG    5.83 289.0 Sn       02:37:27.6     1.7                           T__                        __            67988498
ZEI     6.32 290.9 Pn       02:36:28.6     1.5                           T__                        _e            18250177
ZEI     6.32 290.9 pmax                                                  ___            19.0  0.60  __            18250178
ZEI     6.32 290.9 Pn       02:36:28.6     1.5                           T__            19.0  0.60  _e            67988724
GHVR    6.33 184.8 Pn       02:36:27.0    -0.2                           T__                        _e            67988485
GHVR    6.33 184.8 Pn       02:36:26.96   -0.2                           T__                        _e            00257806
CLDR    6.38 257.5 Pn       02:36:29.57    1.7                           T__                        _e            18542293
AKH     6.40 278.2 Pn       02:36:29.361   1.2                           T__                        __            25309251
AKH     6.40 278.2 Sn       02:37:39.864  -0.2                           T__                        __            25309252
AKH     6.40 278.2 Pn       02:36:29.4     1.2                           T__                        __            67988387
AKH     6.40 278.2 Sn       02:37:39.9    -0.2                           T__                        __            67988388
ASAO    6.43 194.2 Pn       02:36:28.0    -0.6                           T__                        _e            67988399
ASAO    6.43 194.2 Pn       02:36:27.96   -0.6                           T__                        _e            00257802
ONI     6.59 288.5 Pn       02:36:32.6     1.9                           T__                        __            25309263
ONI     6.59 288.5 Sn       02:37:57.513  12.9                           ___                        __            25309264
ONI     6.59 288.5 Pn       02:36:32.6     1.9                           T__                        __            67988614
KARS    6.73 271.4 Pn       02:36:34.34    1.7                           T__                        _e            18542294
SNGE    6.76 213.9 Pn       02:36:32.3    -0.8                           T__                        _e            67988661
SNGE    6.76 213.9 Pn       02:36:32.27   -0.8                           T__                        _e            00257814
AGRB    6.96 262.7 Pn       02:36:37.24    1.5                           T__                        _e            18542295
NEY     7.28 292.6 Pn       02:36:39.1    -1.1                           T__                        _i            18250179
NEY     7.28 292.6 Pn       02:36:39.1    -1.1                           T__                        _i            67988604
KBZ     7.31 296.5 Pn       02:36:40.1    -0.3                           T__                        __            18250180
KBZ     7.31 296.5 Sn       02:38:01.5    -0.5                           T__                        __            18250182
KBZ     7.31 296.5 pmax                                                  ___             3.0  0.30  __            18250181
KBZ     7.31 296.5 smax                                                  ___            16.0  0.30  __            18250183
