Event 15622541 Irian Jaya region
   Date       Time        Err   RMS Latitude Longitude  Smaj  Smin  Az Depth   Err Ndef Nsta Gap  mdist  Mdist Qual   Author      OrigID
2010/01/01 02:38:04.85   1.21 1.500  -1.1475  132.6893  62.5  12.2  83   0.0f         7      147  18.75  86.94     uk IDC       16654442
2010/01/01 02:38:05.30   1.40 0.400  -0.4700  133.7300                  23.0   8.0           206                      DJA       15298076
2010/01/01 02:38:05.64   0.90 0.954  -0.8170  133.6233 12.38   8.3 176  29.0f        13   15  73   0.43  86.25 m i ke ISCJB     00508755
2010/01/01 02:38:06.97   1.15 1.764  -0.8686  133.6350 15.02 8.865   1  29.0f        11   15 133   2.38  65.28 m i ke ISC       00011577
 (#PRIME)

Magnitude  Err Nsta Author      OrigID
mb     3.9 0.0    4 IDC       16654442
mb1    4.1 0.1    5 IDC       16654442
mb1mx  3.8 0.2   21 IDC       16654442
mbtmp  3.9 0.0    5 IDC       16654442
ML     4.1 0.3    1 IDC       16654442
MS     3.9 0.2    2 IDC       16654442
Ms1    4.0 0.2    2 IDC       16654442
ms1mx  3.1 0.2   30 IDC       16654442
M      4.4        5 DJA       15298076
MLv    4.4 0.2    5 DJA       15298076
mb     3.9        4 ISCJB     00508755
MS     4.0        2 ISCJB     00508755
mb     3.9 0.0    4 ISC       00011577

Sta     Dist  EvAz Phase        Time      TRes  Azim AzRes   Slow   SRes Def   SNR       Amp   Per Qual Magnitude    ArrID
MWPI    0.41  98.6 x        02:38:16.7                                   ___           100.7        __            27768531
SWI     2.38 270.1 Pn       02:38:44.5     0.5                           T__             1.7        __            27768534
FAKI    2.46 214.2 Pb       02:38:49.5    -1.1                           T__             1.6        __            27768535
BAKI    2.49  97.4 Pn       02:38:44.9    -0.7                           T__             2.5        __            27768532
BAKI    2.49  97.4 Sn       02:39:14.9    -0.2                           T__             2.5        __            27768533
SRPI    2.79 110.9 Pn       02:38:50.6     0.9                           T__                        __            27768536
WRA    18.97 178.0 Pn       02:42:27.4     0.4 355.9        11.30        T__  42.5       0.7  0.33  __            57922837
WRA    18.97 178.0 Sn       02:45:55.365  -3.4   2.2        23.40        T__   3.3       0.1  0.33  __            57922838
ASAR   22.66 179.4 P        02:43:06.9     0.8 357.6        11.60        T__  89.6       2.8  0.49  __            57922827
ASAR   22.66 179.4 S        02:47:15.396   2.7 347.0        27.60        T__   3.2       0.7  1.02  __            57922828
STKA   31.75 167.1 P        02:44:29.9     1.3 341.6         9.60        T__   3.7       1.1  0.62  __            57922835
H11N1  38.49  56.1 T        03:26:34.306       249.5        74.60        ___   5.0                  __            57922829
H11N2  38.51  56.1 T        03:26:34.711       249.5        74.60        ___   3.6                  __            57922830
H11N3  38.51  56.1 T        03:26:35.823       249.5        74.60        ___   4.3                  __            57922831
RPZ    54.11 147.1 LR       03:13:55.566       250.8        39.50        ___            62.2 18.02  __            57922834
MKAR   65.28 323.8 P        02:48:45.251  -1.0 121.6         6.20        T__   3.1       0.7  0.67  __            57922833
VNDA   78.09 174.0 LR       03:21:48.244       298.9        33.70        ___           135.6 21.98  __            57922836
ILAR   86.29  25.0 P        02:50:52.4     6.5 250.3         5.80        ___   4.8       0.7  0.90  __            57922832

Event 15622542 Hokkaido region
   Date       Time        Err   RMS Latitude Longitude  Smaj  Smin  Az Depth   Err Ndef Nsta Gap  mdist  Mdist Qual   Author      OrigID
2010/01/01 02:42:14.29   0.29 0.915  44.7774  141.4900 9.937 9.235 155 272.5  4.39   51   44  59   0.35  76.19 m i ke ISCJB     00508756
2010/01/01 02:42:14.70   0.30        44.8200  141.5000   2.2   2.4  -1 272.0   3.0                                    JMA       15217980
2010/01/01 02:42:15.62   1.01 0.690  44.8742  141.4327  15.6  11.2 165 266.4  11.4   22       77   1.12  76.09     uk IDC       16654444
2010/01/01 02:42:14.92   0.63 1.129  44.7342  141.5028 9.750 9.049 147 267.1  6.70   50   44  59   0.31  76.23 m i ke ISC       00011578
 (#PRIME)

Magnitude  Err Nsta Author      OrigID
mb     3.4       17 ISCJB     00508756
       3.6          JMA       15217980
mb     3.3 0.1   17 IDC       16654444
mb1    3.4 0.1   21 IDC       16654444
mb1mx  3.3 0.1   32 IDC       16654444
mbtmp  3.3 0.1   21 IDC       16654444
mb     3.4 0.1   17 ISC       00011578

Sta     Dist  EvAz Phase        Time      TRes  Azim AzRes   Slow   SRes Def   SNR       Amp   Per Qual Magnitude    ArrID
JYG     0.31 190.1 Pn       02:42:50.0     0.6                           T__                        __            26334051
JSS     0.42 143.1 Pn       02:42:50.6     1.0                           T__                        __            26334052
JWK2    0.65  25.5 Pn       02:42:50.2     0.1                           T__                        __            26334053
JWK2    0.65  25.5 S        02:43:17.0    -1.0                           T__                        _e            26334054
JSE     0.80  73.3 Pn       02:42:50.9     0.2                           T__                        __            26334055
ASAJ    1.00 127.8 Pn       02:42:52.4     0.6                           T__                        __            26334056
ASAJ    1.00 127.8 Pn       02:42:52.45    0.6 277.3         8.00        T__ 177.3      61.4  0.33  __            57922852
JHR     1.00 170.8 Pn       02:42:53.0     1.1                           T__                        __            26334057
JKK2    1.24 133.5 Pn       02:42:54.0     0.8                           T__                        __            26334058
JKK2    1.24 133.5 S        02:43:24.0     0.6                           T__                        _e            26334059
JAB     1.33 156.9 Pn       02:42:54.9     1.1                           T__                        __            26334060
JMP     1.52 118.0 Pn       02:42:56.1     1.1                           T__                        __            26334061
JSK     1.57 208.6 Pn       02:42:56.4     1.0                           T__                        __            26334062
JFR     1.76 153.0 Pn       02:42:57.5     0.6                           T__                        __            26334063
JTKR    1.89 113.0 Pn       02:42:58.9     1.1                           T__                        __            26334064
JTKR    1.89 113.0 S        02:43:32.9     1.1                           T__                        _e            26334065
JEW     1.89 181.2 Pn       02:42:59.1     1.1                           T__                        __            26334066
JAR     2.18 130.5 Pn       02:43:01.6     1.2                           T__                        __            26334067
JAR     2.18 130.5 S        02:43:37.3     0.9                           T__                        _e            26334068
JCH     2.51 146.9 S        02:43:39.2    -2.9                           T__                        _e            26334069
JNBK    2.62 159.2 Pn       02:43:05.5     0.9                           T__                        __            26334070
JNBK    2.62 159.2 S        02:43:43.7    -0.3                           T__                        _e            26334071
JKB     2.87 187.0 Pn       02:43:07.1    -0.0                           T__                        __            26334073
JKB     2.87 187.0 S        02:43:46.4    -2.1                           T__                        _e            26334074
JAK     2.89 125.8 S        02:43:46.5    -2.4                           T__                        _e            26334072
JOSM    3.03 209.8 Pn       02:43:09.4     0.6                           T__                        __            26334075
NEM2    3.35 112.6 Pn       02:43:12.1    -0.1                           T__                        __            26334076
NEM2    3.35 112.6 S        02:43:54.3    -3.4                           T__                        _e            26334077
USRK    6.83 268.9 Pn       02:43:53.875   0.3  79.5        14.20        T__  15.1       0.5  0.33  __            57922862
MJAR    8.56 198.1 Pn       02:44:18.888   3.6  12.1        11.90        ___   5.2       0.3  0.33  __            57922854
PETK   13.53  46.0 P        02:45:17.837   0.6 225.0        13.90        T__   3.6       0.1  0.33  __            57922859
SEY    19.28  15.2 P        02:46:18.7    -1.1 359.3        21.90        T__   7.7       0.8  0.33  __            57922860
SONM   24.33 289.9 P        02:47:09.34    0.7  87.2         8.30        T__  13.0       1.3  0.46  __            57922861
MKAR   40.51 294.7 P        02:49:27.975  -0.1  79.6         9.50        T__   6.9       1.2  0.59  __            57922855
KURBB  41.67 301.4 P        02:49:37.509   0.2  72.9         8.80        T__   3.7       0.7  0.35  __            57922853
ILAR   43.10  36.5 P        02:49:48.3    -0.4 277.2         9.30        T__  20.2       1.1  0.59  __            57922851
BVAR   45.70 307.0 P        02:50:09.612   0.3  73.6         9.00        T__   9.2       0.6  0.35  __            57922847
AKTO   53.77 308.0 P        02:51:10.1     0.3  71.9        20.70        T__   4.3       0.5  0.50  __            57922844
KEV    56.31 337.6 P        02:51:26.5    -1.0                           T__                        _e            29746896
ARCES  56.86 337.8 P        02:51:30.71   -0.7  28.7         9.60        T__   3.4       5.9  0.98  __            57922845
YKA    57.19  32.4 P        02:51:34.195   0.3 305.3         6.50        T__  11.3       0.8  0.66  __            57922864
JOF    59.27 330.0 P        02:51:47.6    -0.5                           T__                        _e            29746903
FINES  62.09 330.6 P        02:52:05.975  -1.1  58.0         7.20        T__  10.6       1.4  0.56  __            57922849
WRA    64.69 187.5 P        02:52:25.238   0.7   5.3         7.30        T__   2.5       0.3  0.79  __            57922863
NOA    67.14 336.2 P        02:52:38.867  -0.9  35.7         6.30        T__   2.9       0.8  0.63  __            57922856
AKASG  68.31 320.7 P        02:52:46.75   -0.4  40.7         6.10        T__  12.0       1.0  0.44  __            57922843
NVAR   70.42  55.1 P        02:53:02.325   1.8 292.1         5.70        T__   3.1       0.6  0.73  __            57922857
PDAR   72.29  47.0 P        02:53:12.65    1.1 266.7         2.20        T__   7.2       0.9  0.64  __            57922858
BRTR   73.87 310.2 P        02:53:20.689  -0.0  41.9         4.90        T__   2.4       0.3  0.67  __            57922846
EKA    75.91 340.1 P        02:53:31.387  -0.5  29.0         5.30        T__   5.9       0.6  0.49  __            57922848
GERES  76.23 327.5 P        02:53:33.775  -0.2  41.5         6.20        T__   7.2       0.2  0.40  __            57922850

Event 15622543 Southern Molucca Sea
   Date       Time        Err   RMS Latitude Longitude  Smaj  Smin  Az Depth   Err Ndef Nsta Gap  mdist  Mdist Qual   Author      OrigID
2010/01/01 02:49:04.92   1.75 0.780   0.0768  125.8857 181.4  22.9  64   0.0f         4      191  21.55  76.00     uk IDC       16654445
2010/01/01 02:49:07.90   1.30 1.100  -0.0100  125.7800                  62.0  37.0           309                      DJA       15298075
2010/01/01 02:49:08.96   1.00 0.911  -0.0296  125.7373 15.46 9.543  17  44.0f        13   10 190   1.86  75.99 m i ke ISCJB     00508757
2010/01/01 02:49:10.95   1.31 1.732  -0.0978  125.7427 19.21 14.22  28  44.0f        10   10 190   1.88  76.05 m i ke ISC       00011579
 (#PRIME)

Magnitude  Err Nsta Author      OrigID
mb     3.4 0.2    4 IDC       16654445
mb1    3.5 0.1    4 IDC       16654445
mb1mx  3.3 0.2   22 IDC       16654445
mbtmp  3.4 0.2    4 IDC       16654445
M      4.4        5 DJA       15298075
mb     4.3        1 DJA       15298075
MLv    4.4 0.1    5 DJA       15298075
mb     3.4        4 ISCJB     00508757
mb     3.4 0.5    4 ISC       00011579

Sta     Dist  EvAz Phase        Time      TRes  Azim AzRes   Slow   SRes Def   SNR       Amp   Per Qual Magnitude    ArrID
KMSI    1.88 290.8 Pn       02:49:37.8    -2.9                           ___             4.2        __            27768522
KMSI    1.88 290.8 Sn       02:50:01.5    -1.8                           T__             4.2        __            27768523
GTOI    2.83 284.9 Pn       02:49:52.9    -0.7                           T__             1.4        __            27768524
GTOI    2.83 284.9 Sn       02:50:29.7     3.2                           T__             1.4        __            27768525
LUWI    3.12 252.5 Pn       02:49:55.9    -1.7                           T__             1.5        __            27768526
LUWI    3.12 252.5 Sn       02:50:34.1     0.5                           T__             1.5        __            27768527
MRSI    3.84 278.5 Pn       02:50:11.8     4.2                           ___                        __            27768528
APSI    4.17 258.8 Pn       02:50:12.0    -0.1                           T__             0.6        __            27768529
SPSI    7.10 237.2 Pn       02:50:47.9    -4.4                           ___             0.1        __            27768530
WRA    21.45 157.4 P        02:53:55.0    -0.6 336.1        11.60        T__   4.8       0.3  0.41  __            57922868
ASAR   24.73 161.9 P        02:54:30.35    1.9 343.8         9.10        T__   4.5       0.3  0.56  __            57922866
MKAR   60.16 327.0 P        02:59:14.338   0.1 124.4         7.60        T__   8.4       0.4  0.57  __            57922867
AKTO   76.05 322.4 P        03:00:53.7    -0.1  97.2         5.90        T__   7.9       0.8  0.59  __            57922865

Event 14542174 Hindu Kush region
   Date       Time        Err   RMS Latitude Longitude  Smaj  Smin  Az Depth   Err Ndef Nsta Gap  mdist  Mdist Qual   Author      OrigID
2010/01/01 02:59:17.05   4.11 1.300  36.2988   70.9222  28.9  18.2  34 158.2  36.0   15      144   6.91  84.19     uk IDC       16654446
2010/01/01 02:59:28.91   7.04 1.530  37.2043   70.9284  69.1  43.4  20 237.8  75.9    9      249   5.91  16.13     uk NNC       14149446
2010/01/01 02:59:16.50   1.02 2.233  36.3434   70.9009 16.86 12.32 113 150.0f        30   27 143   6.17  84.23 m i ke ISC       00011580
 (#PRIME)

Magnitude  Err Nsta Author      OrigID
mb     3.2 0.1    9 IDC       16654446
mb1    3.3 0.1   13 IDC       16654446
mb1mx  3.1 0.1   30 IDC       16654446
mbtmp  3.1 0.1   13 IDC       16654446
MS     3.3 0.2    1 IDC       16654446
Ms1    3.2 0.2    1 IDC       16654446
ms1mx  2.6 0.1   26 IDC       16654446
mb     2.4          NNC       14149446
mpv    3.6          NNC       14149446
mb     3.4 0.1    8 ISC       00011580

Sta     Dist  EvAz Phase        Time      TRes  Azim AzRes   Slow   SRes Def   SNR       Amp   Per Qual Magnitude    ArrID
AML     6.17  19.7 Pn       03:00:48.71    2.9                           T__  78.3                  __            19590448
UCH     6.51  24.4 Pn       03:00:53.45    3.1                           T__   9.9                  __            19590452
EKS2    6.69  18.5 Pn       03:00:55.38    2.9                           T__  19.3                  __            19590449
KK31    6.76 357.6 Pn       03:00:55.672   2.4 181.4        12.20        T__  20.8       1.0  0.35  __            10598313
KK31    6.76 357.6 Sn       03:02:06.434  -2.7 182.8        21.50        T__   6.4       2.5  0.40  __            10598314
AAK     6.87  22.8 Pn       03:00:57.763   2.9                           T__             1.9  0.35  __            10598308
AAK     6.87  22.8 Pn       03:00:58.01    3.2                           T__   8.6                  __            19590447
AAK     6.87  22.8 Pn       03:00:57.694   2.9 170.2         3.20        T__  25.6       1.5  0.33  __            57922869
AAK     6.87  22.8 Sn       03:02:11.369  -0.6 345.8        21.70        T__  11.6       0.7  0.33  __            57922870
KBK     7.04  25.1 Pn       03:01:00.32    3.2                           T__   6.4                  __            19590450
USP     7.45  20.7 Pn       03:01:04.98    2.5                           T__   6.8                  __            19590453
TKM2    7.50  27.4 Pn       03:01:05.569   2.2                           T__             7.8  0.55  __            10598315
TKM2    7.50  27.4 Sn       03:02:22.904  -4.3                           T__             1.3  0.60  __            10598316
TKM2    7.50  27.4 Pn       03:01:06.03    2.7                           T__  18.6                  __            19590451
MKAR   13.46  35.6 Pn       03:02:22.223   0.7 219.9        15.00        T__   3.4       0.1  0.33  __            57922879
AB31   15.18 331.6 P        03:02:45.74    1.2 151.8        10.10        T__  16.0       0.2  0.35  __            10598309
AB31   15.18 331.6 Sn       03:05:20.647 -11.0 321.7        17.30        ___   4.0       0.3  0.55  __            10598310
BVA0   16.68 358.9 P        03:02:58.649  -2.4 154.5        10.70        T__   5.8       0.7  0.85  __            10598312
BVAR   16.68 358.9 Pn       03:03:02.462   1.1 159.3        11.40        T__   5.2       0.1  0.33  __            57922875
BVAR   16.68 358.9 S        03:06:05.562  -1.0 161.6        18.60        T__   4.4       0.1  0.33  __            57922876
AKTO   16.88 330.6 P        03:03:01.352  -1.9                           T__             0.5  0.45  __            10598311
AKTO   16.88 330.6 Pn       03:03:05.125   1.4 148.3         9.20        T__  12.5       0.3  0.33  __            57922872
ZALV   20.09  24.5 P        03:03:38.125  -0.0 207.1        12.20        T__   4.5       0.5  0.41  __            57922884
KBZ    22.60 297.7 LR       03:14:25.76         85.2        40.10        ___            83.6 20.59  __            57922878
AKASG  32.98 309.0 P        03:05:36.155  -0.7 110.0         7.40        T__   4.4       0.1  0.33  __            57922871
FINES  37.57 326.3 P        03:06:16.25    0.3 146.0        10.60        T__   4.3       9.4  1.30  __            57922877
ARCES  41.26 337.7 P        03:06:47.075   0.7 112.3         7.90        T__   7.2       2.7  0.91  __            57922873
NOA    44.46 323.1 P        03:07:13.275   1.0  95.8         7.70        T__   3.3       0.9  0.90  __            57922880
TORD   65.63 268.6 P        03:09:43.275  -1.5  42.3         4.70        T__   4.5       0.3  0.67  __            57922881
YKA    81.41   2.6 P        03:11:15.995  -0.2 351.0         5.40        T__  11.2       0.3  0.35  __            57922883
WRA    81.98 121.8 P        03:11:19.1    -0.7 323.9         4.80        T__   5.3       0.5  1.02  __            57922882
ASAR   84.23 124.8 P        03:11:30.9    -0.4 317.1         4.90        T__   9.0       0.4  0.57  __            57922874

