Event 14212632 Philippine Islands region
   Date       Time        Err   RMS Latitude Longitude  Smaj  Smin  Az Depth   Err Ndef Nsta Gap  mdist  Mdist Qual   Author      OrigID
2010/01/01 05:37:06.50   4.80 1.800  15.3800  126.0000                 125.0  34.0           294                      DJA       15298068
2010/01/01 05:37:07.20        1.620  13.3800  125.9000                  16.0         41      287  16.40  51.10     uk BJI       14211220
2010/01/01 05:37:09.92   0.44 0.720  13.6874  125.5013  17.8  10.7  77   0.0f        35      101   4.45 149.62     uk IDC       16654451
2010/01/01 05:37:10.77   1.11 1.091  13.7389  125.5746 5.490 4.187 161  15.0  8.17  202  197 112   1.39  90.88 m i se ISCJB     00508760
2010/01/01 05:37:12           0.610  15.5560  119.8900                  15.0              21                          MAN       16865638
2010/01/01 05:37:13.10   1.05        13.6420  125.5180  13.3   6.4 121  33.0         54                               MOS       14580939
2010/01/01 05:37:13.49   1.42 0.640  13.6870  125.5540   5.8   3.5  77  22.9  10.3   60       55   4.50 166.53     se NEIC      16339011
2010/01/01 05:37:12.75   0.43 1.502  13.7196  125.6247 7.035 4.596  66  17.1  2.30  238  199  55   1.44 166.47 m i se ISC       00011586
 (#PRIME)

Magnitude  Err Nsta Author      OrigID
M      4.5       10 DJA       15298068
mb     4.7 0.2   10 DJA       15298068
mB     5.0 0.2    5 DJA       15298068
       4.3 0.4    5 DJA       15298068
mb     4.5       33 BJI       14211220
mB     5.0       21 BJI       14211220
Ms     4.5       12 BJI       14211220
Ms7    4.2        8 BJI       14211220
mb     4.3 0.1   24 IDC       16654451
mb1    4.4 0.1   27 IDC       16654451
mb1mx  4.3 0.0   34 IDC       16654451
mbtmp  4.3 0.1   27 IDC       16654451
ML     3.6 0.2    2 IDC       16654451
MS     3.5 0.1   10 IDC       16654451
Ms1    3.6 0.1   10 IDC       16654451
ms1mx  3.3 0.1   31 IDC       16654451
mb     4.5       67 ISCJB     00508760
MS     3.7       12 ISCJB     00508760
mb     4.4          MAN       16865638
ML     3.2          MAN       16865638
MS     3.0          MAN       16865638
mb     4.9       22 MOS       14580939
mb     4.7       20 NEIC      16339011
mb     4.5 0.2   67 ISC       00011586
MS     3.6 0.2   13 ISC       00011586

Sta     Dist  EvAz Phase        Time      TRes  Azim AzRes   Slow   SRes Def   SNR       Amp   Per Qual Magnitude    ArrID
PVCP    1.44 265.3 Pn       05:37:35.04   -2.9                           T__       4905500.0        _e            60425680
PVCP    1.44 265.3 Sn       05:37:52.47   -4.0                           T__                        _i            60425681
CNP     1.52 218.0 Pn       05:37:38.18   -1.0                           T__                        _e            60425682
PLP     2.62 194.0 Pn       05:37:53.35   -0.9                           T__       4173150.0        _e            60425683
PLP     2.62 194.0 Sn       05:38:24.56   -1.1                           T__                        _e            60425684
OCLP    2.83 200.6 Pn       05:37:58.33    1.1                           T__                        _e            60425686
AUQP    2.90 262.5 Pn       05:37:58.0    -0.1                           T__                        _e            60425685
GQP     3.09 273.8 Pn       05:37:58.84   -2.0                           T__       2086050.0        _e            60425687
GQP     3.09 273.8 Sn       05:38:33.11   -4.3                           T__                        _e            60425688
RCP     3.54 233.0 Pn       05:38:06.72   -0.2                           T__        109500.0        _e            60425689
RCP     3.54 233.0 Sn       05:38:46.72   -1.7                           T__                        _e            60425690
MSLP    3.64 192.0 Pn       05:38:09.25    0.9                           T__                        _e            60425692
BOAC    3.69 266.4 Pn       05:38:07.69   -1.3                           T__                        _e            60425691
LLP     3.75 205.8 Pn       05:38:11.76    1.9                           T__         95500.0        _e            60425693
LLP     3.75 205.8 Sn       05:38:47.14   -6.5                           ___                        _e            60425694
GUIM    4.27 224.3 Pn       05:38:17.19    0.1                           T__                        _e            60425696
PALP    4.54 317.5 Pn       05:38:15.45   -5.2                           ___       1011000.0        _e            60425695
PALP    4.54 317.5 Pn       05:38:18.25   -2.4                           T__                        _e            60425697
TGY     4.57 275.3 Pn       05:38:19.94   -1.2                           T__                        __            50541110
TGY     4.57 275.3 Sn       05:39:12.79   -1.1                           T__                        __            50541111
TGY     4.57 275.3 Pn       05:38:19.937  -1.2  77.8         0.30        T__  12.1      86.1  0.33  __            57922961
TGY     4.57 275.3 Sn       05:39:12.787  -1.1  42.6        21.50        T__   3.7      45.4  0.33  __            57922962
PCPH    4.75 293.2 Pn       05:38:19.43   -4.2                           ___       1122050.0        _e            60425698
PCPH    4.75 293.2 Sn       05:39:08.9    -9.4                           ___                        _e            60425699
CVP     5.39 317.7 Pn       05:38:30.7    -1.8                           T__         92800.0        _e            60425700
BUSP    5.56 252.7 Pn       05:38:34.35   -0.4                           T__                        _e            60425701
SZP     6.27 308.1 Pn       05:38:44.76    0.3                           T__                        _e            50541109
DAV     6.61 180.4 Pn       05:38:47.54   -1.6                           T__                        __            50541072
DAV     6.61 180.4 Sn       05:40:00.06   -4.1                           T__                        _e            50541073
YULB   10.46 337.5 Pn       05:39:42.62    0.6                           T__                        _e            50541120
YULB   10.46 337.5 Sn       05:41:28.62  -10.3                           ___                        _e            50541121
JOW    13.28  10.4 Pn       05:40:20.75    0.2                           T__                        _e            50541085
JOW    13.28  10.4 Pn       05:40:20.5    -0.1 167.9        18.00        T__   9.6       0.4  0.33  __            57922941
JOW    13.28  10.4 LR       05:44:17.873         0.7        32.10        ___            16.3 21.93  __            57922942
MRSI   13.65 195.8 P        05:40:34.1    -0.4                           T__           845.2        __            27768441
APSI   15.06 195.5 P        05:40:54.1     4.0                           T__            49.4  1.16  __            27768442
SWI    15.53 158.5 P        05:40:53.4    -1.9                           T__            27.3  1.03  __            27768443
QIZ    16.03 291.3 Pn       05:40:56.2    -1.4                           T__                        __            14835235
QIZ    16.03 291.3 Sn       05:43:55.6     0.5                           T__                        __            14835236
QIZ    16.03 291.3 pmax                                                  ___           140.0  5.50  __            14835237
NLAI   16.91 174.9 P        05:41:10.5    -0.2                           T__            45.5  0.65  __            27768444
MSAI   17.27 168.8 P        05:41:20.2     5.5                           ___           691.4        __            27768446
SBUM   17.35 231.0 x        05:41:15.7                                   ___           541.0        __            27768445
SBUM   17.35 231.0 P        05:41:15.05   -0.5                           T__            29.9  1.20  _e            50541101
MMSI   17.61 202.7 x        05:41:04.0                                   ___                        __            27768447
TTSI   17.62 199.5 P        05:41:20.4     1.8                           T__           982.3        __            27768448
MJSI   18.38 201.5 x        05:40:59.7                                   ___                        __            27768449
MJSI   18.38 201.5 x        05:42:34.8                                   ___                        __            27768450
SPSI   18.50 198.7 Pn       05:41:31.0     2.5                           T__            60.7  0.94  __            27768451
BNSI   18.82 197.3 Pn       05:41:35.5     3.2                           T__          2180.3        __            27768452
NJ2    19.27 342.3 Pn       05:41:37.5    -0.2                           T__                        _e            14835233
NJ2    19.27 342.3 pmax                                                  ___            10.0  0.80  __            14835234
JNU    19.90  13.0 P        05:41:43.58    0.1                           T__            21.5  1.40  _e            50541084
JNU    19.90  13.0 P        05:41:42.275  -1.2  11.3        10.30        T__   3.9       0.2  0.33  __            57922939
JNU    19.90  13.0 LR       05:48:58.651        41.9        35.50        ___            71.8 18.85  __            57922940
BBKI   20.15 212.8 P        05:41:45.7    -0.6                           T__                        __            27768453
GYA    21.82 308.4 P        05:42:07.9     3.5                           T__                        __            14835194
GYA    21.82 308.4 PnPn     05:42:31.8     6.0                           T__                        __            14835195
GYA    21.82 308.4 S        05:46:02.4    -2.9                           T__                        __            14835196
GYA    21.82 308.4 SnSn     05:46:39.0     8.5                           T__                        __            14835197
GYA    21.82 308.4 ScP      05:49:42.2     1.2                           T__                        __            14835198
GYA    21.82 308.4 pmax                                                  ___            20.0  1.00  __            14835199
GYA    21.82 308.4 pmax                                                  ___           110.0  4.70  __            14835200
GYA    21.82 308.4 LR                                                    ___           650.0 14.30  __            14835201
GYA    21.82 308.4 LR                                                    ___           530.0 15.00  __            14835202
GYA    21.82 308.4 LR                                                    ___           670.0 14.20  __            14835203
SLVN   22.04 293.1 P        05:42:06.37   -0.4                           T__                        _e            50541105
ENH    22.21 320.5 P        05:42:07.7    -0.8                           T__             3.4  0.30  __            50541078
LBFI   22.78 194.8 x        05:41:19.4                                   ___                        __            27768454
KSAR   23.71   4.5 P        05:42:24.8     1.0                           T__                        __            50541088
KSRS   23.73   4.5 P        05:42:24.8     0.9 181.8         9.90        T__  16.7       7.5  0.91  __            57922944
KSRS   23.73   4.5 LR       05:50:33.816       200.0        33.80        ___            54.4 21.64  __            57922945
KMI    24.34 301.2 P        05:42:30.9     0.8                           T__                        __            14835208
KMI    24.34 301.2 pmax                                                  ___             6.0  0.70  __            14835209
JAGI   24.81 208.0 P        05:42:33.97   -0.2                           T__            38.3  1.10  _e            50541083
XAN    25.28 326.0 P        05:42:37.5    -0.8                           T__                        __            14835245
XAN    25.28 326.0 pP       05:42:40.4    -3.1                           T__                        __            14835246
XAN    25.28 326.0 pmax                                                  ___             2.0  0.60  __            14835247
XAN    25.28 326.0 pmax                                                  ___            20.0  4.10  __            14835248
MJAR   25.37  24.2 LR       05:50:53.654       205.0        32.40        ___           120.0 20.62  __            57922946
CM31   26.05 284.0 P        05:42:44.93   -0.6                           T__             9.1  0.70  _e            50541065
CMAR   26.05 284.0 P        05:42:44.85   -0.6                           T__                        __            50541066
CMAR   26.05 284.0 PcP      05:46:14.65    1.3                           T__                        __            50541067
CMAR   26.05 284.0 P        05:42:44.85   -0.6  96.7         7.90        T__  60.2      11.6  0.80  __            57922930
CMAR   26.05 284.0 PcP      05:46:14.65    1.3  38.3         1.10        T__   9.4       1.3  0.56  __            57922931
CMAR   26.05 284.0 LR       05:53:39.414       108.5        38.10        ___            78.0 19.27  __            57922932
CD2    26.41 314.0 P        05:42:49.4     0.8                           T__                        _e            14835174
CD2    26.41 314.0 pP       05:42:53.8    -0.0                           T__                        __            14835175
CD2    26.41 314.0 sP       05:42:56.6     0.6                           T__                        __            14835176
CD2    26.41 314.0 PnPn     05:43:32.7     4.2                           T__                        __            14835177
CD2    26.41 314.0 S        05:47:21.1    -0.4                           T__                        __            14835178
CD2    26.41 314.0 SnSn     05:48:30.5     7.8                           T__                        __            14835179
CD2    26.41 314.0 pmax                                                  ___            10.0  1.40  __            14835180
CD2    26.41 314.0 pmax                                                  ___           140.0  4.80  __            14835181
CD2    26.41 314.0 LR                                                    ___           330.0 13.10  __            14835182
CD2    26.41 314.0 LR                                                    ___           150.0 11.90  __            14835183
CD2    26.41 314.0 LR                                                    ___           310.0 15.50  __            14835184
BJI    27.50 344.2 P        05:42:58.6     0.3                           T__                        __            14835172
BJI    27.50 344.2 pmax                                                  ___             5.0  0.50  __            14835173
PSI    28.52 250.0 LR       05:54:10.685       141.0        35.90        ___           199.9 20.75  __            57922954
LZH    29.64 322.6 P        05:43:17.5    -0.1                           T__                        _e            14835221
LZH    29.64 322.6 pP       05:43:22.1    -0.7                           T__                        __            14835222
LZH    29.64 322.6 sP       05:43:24.8    -0.1                           T__                        __            14835223
LZH    29.64 322.6 pmax                                                  ___            17.0  1.10  __            14835224
HHC    29.69 338.2 P        05:43:19.5     1.6                           T__                        _e            14835204
HHC    29.69 338.2 pP       05:43:23.8     0.6                           T__                        __            14835205
HHC    29.69 338.2 pmax                                                  ___            31.0  0.90  __            14835206
HHC    29.69 338.2 pmax                                                  ___           510.0  5.60  __            14835207
CN2    29.98 359.7 P        05:43:21.6     1.3                           T__                        _e            14835185
CN2    29.98 359.7 sP       05:43:30.4     2.7                           T__                        _e            14835186
CN2    29.98 359.7 S        05:48:17.4     0.1                           T__                        _e            14835187
CN2    29.98 359.7 pmax                                                  ___            10.0  0.70  __            14835188
CN2    29.98 359.7 pmax                                                  ___           200.0  3.00  __            14835189
USRK   30.86   8.9 P        05:43:28.775   0.7 185.1         9.60        T__   9.0       5.5  0.83  __            57922965
MDJ    30.98   5.5 P        05:43:29.6     0.5                           T__                        __            14835225
MDJ    30.98   5.5 pP       05:43:32.6    -1.8                           T__                        __            14835226
MDJ    30.98   5.5 sP       05:43:34.0    -2.5                           T__                        __            14835227
MDJ    30.98   5.5 S        05:48:35.3     2.3                           T__                        __            14835228
MDJ    30.98   5.5 sS       05:48:40.5    -1.2                           T__                        __            14835229
MDJ    30.98   5.5 ScP      05:50:08.0     0.7                           T__                        __            14835230
MDJ    30.98   5.5 PcS      05:50:09.3     0.3                           T__                        __            14835231
MDJ    30.98   5.5 pmax                                                  ___            92.0  3.20  __            14835232
COEN   32.53 147.0 P        05:43:42.55   -0.5                           T__                        _e            50541068
SHL    33.79 295.6 P        05:43:55.0     0.7                           T__                        _e            30741472
GTA    34.23 323.2 P        05:43:58.2     0.4                           T__                        _e            14835190
GTA    34.23 323.2 pP       05:44:02.5    -0.6                           T__                        __            14835191
GTA    34.23 323.2 sP       05:44:06.0     0.8                           T__                        __            14835192
GTA    34.23 323.2 pmax                                                  ___             3.0  1.10  __            14835193
WRAB   34.53 165.4 P        05:43:58.7    -1.7                           T__                        _e            18250564
WRAB   34.53 165.4 pmax                                                  ___            33.0  1.70  __            18250565
WRA    34.53 165.4 P        05:43:59.05   -1.4                           T__                        __            50541117
WRA    34.53 165.4 PcP      05:46:35.13   -0.2                           T__                        __            50541118
WRA    34.53 165.4 P        05:43:59.05   -1.4 347.3         9.10        T__  28.8       4.8  0.93  __            57922966
WRA    34.53 165.4 PcP      05:46:35.125  -0.2 341.9         3.40        T__  13.8       3.1  0.78  __            57922967
HABR   35.52  10.8 P        05:44:15.8     7.2                           ___                        __            18250570
HABR   35.52  10.8          05:45:25.8                                   ___                        _e            18250572
HABR   35.52  10.8          05:46:34.3                                   ___                        _e            18250573
HABR   35.52  10.8 S        05:49:39.8    -3.6                           T__                        _e            18250574
HABR   35.52  10.8 sS       05:49:56.6     4.5                           ___                        _e            18250575
HABR   35.52  10.8 SnSn     05:52:03.9     0.0                           T__                        _e            18250576
HABR   35.52  10.8          05:54:22.8                                   ___                        _e            18250577
HABR   35.52  10.8 pmax                                                  ___            51.0  1.60  __            18250571
